{"type": "FeatureCollection", "features": [{"type": "Feature", "properties": {"adm1_name": "Banteay Meanchey", "adm1_name1": null, "adm1_name2": null, "adm1_name3": null, "adm1_pcode": "KH01", "adm0_name": "Cambodia", "adm0_name1": null, "adm0_name2": null, "adm0_name3": null, "adm0_pcode": "KH", "valid_on": "2018-10-04", "valid_to": null, "area_sqkm": 6145.93419218, "version": "v01", "lang": "en", "lang1": null, "lang2": null, "lang3": null, "adm1_ref_name": "Banteay Meanchey", "center_lat": 13.80471802, "center_lon": 103.08048536}, "geometry": {"type": "MultiPolygon", "coordinates": [[[[103.41949462900004, 13.736877441000104], [103.42291259800015, 13.739501953000058], [103.42370605500014, 13.743713379000155], [103.42071533200004, 13.743103027000075], [103.4216918950001, 13.746520996000186], [103.42529296900017, 13.749694824000073], [103.42871093700018, 13.749877930000139], [103.43011474600007, 13.753479003999985], [103.42431640600012, 13.754699707000043], [103.4238891600001, 13.757690430000139], [103.42468261700014, 13.760925293000184], [103.4238891600001, 13.765686035000044], [103.42108154300007, 13.76867675799997], [103.41827392600004, 13.770690918000184], [103.41528320300012, 13.769714355000133], [103.41168212900004, 13.771911621000015], [103.41009521500018, 13.77612304700017], [103.41210937500006, 13.778320312000119], [103.41412353500004, 13.774902344000111], [103.41589355500014, 13.778076172], [103.42010498000019, 13.778076172], [103.42449951200018, 13.779113770000038], [103.42572021500018, 13.783081055000139], [103.42449951200018, 13.786499023000147], [103.42291259800015, 13.789123535000044], [103.42590332000015, 13.790527344000111], [103.42791748000019, 13.793090820000145], [103.42749023400017, 13.79711914100011], [103.42492675800014, 13.795104980000133], [103.42211914100011, 13.796875], [103.42468261700014, 13.79931640600006], [103.42730712900004, 13.80047607400013], [103.43090820300006, 13.802124023000147], [103.43090820300006, 13.807312012000125], [103.43432617200017, 13.809509277000132], [103.43768310500019, 13.811889647999976], [103.44012451200012, 13.815307617000087], [103.44091796900017, 13.818298340000183], [103.43670654300007, 13.817077637000182], [103.43212890600012, 13.817077637000182], [103.42987060500019, 13.82049560500019], [103.43188476600017, 13.824523926000154], [103.42767334000001, 13.825073242000144], [103.42572021500018, 13.829895020000095], [103.42327880900012, 13.834472656000116], [103.42572021500018, 13.83648681600016], [103.4251098630001, 13.840270996000129], [103.42407226600017, 13.844116211000028], [103.42370605500014, 13.848083496000072], [103.4238891600001, 13.853088379000042], [103.4216918950001, 13.856323242000087], [103.42370605500014, 13.859313965000183], [103.42749023400017, 13.858276367000144], [103.4268798830002, 13.86151123000019], [103.42767334000001, 13.865295410000101], [103.4307250980001, 13.86688232400013], [103.43011474600007, 13.870727539000086], [103.4281005860002, 13.874877930000025], [103.42590332000015, 13.877319336000028], [103.42889404300007, 13.880126953000058], [103.43310546900017, 13.879516602000137], [103.4346923830002, 13.883483887000182], [103.4346923830002, 13.888488770000151], [103.43530273400017, 13.891723633000026], [103.43811035200014, 13.891113281000116], [103.43908691400009, 13.895324707000043], [103.44232177700013, 13.898925781000116], [103.43988037100013, 13.901672362999989], [103.43688964800003, 13.904113770000151], [103.43908691400009, 13.906494141000167], [103.43688964800003, 13.910278320000032], [103.44030761700009, 13.911682129000098], [103.44067382800012, 13.91632080100004], [103.43768310500019, 13.917480469000054], [103.43487548800016, 13.918884277000188], [103.42907714800003, 13.919311523000033], [103.42633056600016, 13.919921875000057], [103.42352294900007, 13.921508789000086], [103.42071533200004, 13.922912597999982], [103.41809082000015, 13.924316406000173], [103.41510009800015, 13.926513672000056], [103.41131591800018, 13.9285278320001], [103.40728759800015, 13.928710937000062], [103.40209960900012, 13.929321289000086], [103.39727783200004, 13.930908203000115], [103.3931274410001, 13.931701660000158], [103.39007568400012, 13.932678223000039], [103.38690185500013, 13.935119629000042], [103.38391113300014, 13.938720703000115], [103.38092041000004, 13.942321777000188], [103.37890625, 13.945129395000151], [103.37567138700018, 13.94952392600004], [103.37231445300006, 13.954284668000128], [103.36932373000013, 13.958312987999989], [103.3665161130001, 13.961914062000062], [103.36407470700004, 13.965087891000053], [103.36187744100016, 13.96868896500007], [103.3587036130001, 13.973876953000172], [103.35687255900012, 13.977294922000112], [103.35491943400007, 13.980712891], [103.35290527300015, 13.984130859], [103.34912109400011, 13.990905762000068], [103.34710693400007, 13.994323730000076], [103.34509277300015, 13.997680663999972], [103.34368896500018, 14.000305176000097], [103.34149169900007, 14.002319336000085], [103.33288574200009, 14.015075684000067], [103.33190918000008, 14.01892089800009], [103.33129882800006, 14.022277831999986], [103.3284912110002, 14.025695801000097], [103.32507324200009, 14.022521973000039], [103.32171630900007, 14.018310547000112], [103.31848144500009, 14.014709473000039], [103.31610107400007, 14.011718750000114], [103.31451416000004, 14.009277344000111], [103.31268310500013, 14.006530762000011], [103.3098754880001, 14.002502441000047], [103.30072021500013, 13.991699219000054], [103.29431152300009, 13.984680176000097], [103.28692627000004, 13.97650146500007], [103.28027343700012, 13.969116211000085], [103.27770996100014, 13.966308594000054], [103.2744750980001, 13.963073730000076], [103.27111816400014, 13.960510254000098], [103.26708984400011, 13.956909180000025], [103.2645263670002, 13.955078125000114], [103.26092529300013, 13.953491211000085], [103.25750732400019, 13.952697754000098], [103.25372314499998, 13.952087402000018], [103.25048828100006, 13.951477051000097], [103.24707031200012, 13.951293945000032], [103.24407959000013, 13.951477051000097], [103.23809814500004, 13.950927734000174], [103.21887207000003, 13.95007324200003], [103.21270752000015, 13.948120117000144], [103.20727539100005, 13.944885254000098], [103.20410156200006, 13.93927001999998], [103.20172119100005, 13.942321777000188], [103.19812011700014, 13.949890137000068], [103.19189453100017, 13.96069335900006], [103.18109130900018, 13.977294922000112], [103.17108154300013, 13.993713379000098], [103.17047119100005, 13.996887207000157], [103.17150878900009, 14.000915527000018], [103.17547607400019, 14.002502441000047], [103.18011474600013, 14.00531005900001], [103.18371581999997, 14.008300781], [103.18688964800003, 14.011291504000098], [103.18792724600013, 14.014526366999974], [103.18951416000016, 14.017272949000073], [103.19128418000003, 14.020324707000157], [103.19287109400005, 14.023315430000025], [103.19390869100005, 14.02709960900006], [103.19470214800003, 14.031921387000068], [103.19567871100014, 14.036071777000075], [103.19567871100014, 14.039123534999987], [103.19451904300007, 14.04187011700003], [103.19189453100017, 14.045104980000076], [103.18927002000004, 14.04748535200008], [103.18688964800003, 14.050476074000073], [103.18688964800003, 14.054504395000038], [103.18951416000016, 14.05749511700003], [103.19207763700007, 14.058898926000097], [103.19427490200007, 14.060913086000141], [103.19769287100013, 14.064086914000029], [103.20031738300003, 14.068725586000141], [103.20050048799999, 14.07287597700008], [103.2014770510001, 14.076293945000089], [103.20129394500003, 14.079711914000029], [103.20031738300003, 14.083679199000073], [103.20330810500008, 14.087524413999972], [103.20507812500011, 14.09069824200003], [103.20629882800017, 14.093505859000118], [103.20770263700007, 14.09790039100011], [103.20892334000007, 14.102111816000104], [103.21008300800008, 14.105712891000053], [103.21032714800003, 14.109313965000126], [103.20709228500016, 14.10913085900006], [103.20349121100008, 14.107727051000097], [103.1978759770002, 14.108703613000102], [103.19409179700011, 14.10852050800014], [103.19030761700014, 14.107116699000073], [103.18609619100005, 14.106872559000124], [103.18310546900005, 14.106689453000058], [103.17907714800009, 14.106506348000096], [103.17529296900005, 14.106872559000124], [103.17187500000011, 14.10913085900006], [103.16809082000003, 14.111083984000118], [103.16430664100017, 14.112121581999986], [103.16107177700002, 14.111511230000133], [103.1580810550002, 14.108703613000102], [103.15447998000008, 14.109924316000104], [103.15191650400004, 14.11187744100016], [103.14892578100012, 14.11132812500017], [103.14550781200006, 14.11071777300009], [103.14312744100016, 14.108703613000102], [103.13891601600017, 14.109497070000089], [103.13427734400005, 14.11132812500017], [103.13049316400009, 14.11187744100016], [103.12731933600003, 14.11047363299997], [103.1243286130001, 14.11010742200017], [103.12072753900009, 14.112304687000119], [103.1182861330002, 14.114501953000058], [103.11492919900013, 14.11572265600006], [103.11132812500006, 14.116271973000153], [103.10931396500018, 14.11968994100016], [103.10528564500015, 14.122070312000176], [103.1019287110002, 14.124511719000111], [103.09991455100015, 14.126892090000183], [103.09729003900009, 14.130310059000067], [103.09332275400004, 14.132080078000058], [103.08947753900009, 14.13549804700017], [103.08569335900017, 14.138671875000057], [103.08270263700018, 14.14111328100006], [103.08148193400012, 14.14508056600016], [103.08050537100007, 14.149719238000102], [103.07952880900012, 14.155273437], [103.076904297, 14.159729004000155], [103.07611084000018, 14.163513184000124], [103.03192138700012, 14.25030517600004], [103.03167724600007, 14.247070312000062], [103.03228759800015, 14.243896484000174], [103.03247070300012, 14.238708496000072], [103.02868652300015, 14.235473633000026], [103.02508544900007, 14.232482910000158], [103.02270507800006, 14.2293090820001], [103.01831054700017, 14.230895996000129], [103.01428222700008, 14.231323242000087], [103.0120849610002, 14.228271484], [103.01049804700017, 14.225280762000182], [103.00708007800006, 14.222290039000086], [103.0042724610002, 14.220520020000095], [103.00012207000009, 14.215087891000167], [102.99627685500013, 14.213928223000153], [102.99328613300014, 14.214111328000115], [102.99047851600011, 14.213317871000072], [102.98767089800015, 14.214477539000086], [102.9837036130001, 14.214294434000124], [102.9788818360002, 14.21307373000002], [102.97430419900007, 14.211486816], [102.97113037100019, 14.210510254000042], [102.96789550800014, 14.21087646500007], [102.96508789100011, 14.21209716800007], [102.96209716800018, 14.211914062000176], [102.95947265600006, 14.210327148000147], [102.95489502000004, 14.20867919900013], [102.95190429700011, 14.206115723000153], [102.95349121100014, 14.203491211000028], [102.95568847700008, 14.201110840000183], [102.95672607400019, 14.197692871000072], [102.95312500000017, 14.196289062], [102.94873046900005, 14.196899414000086], [102.94549560500013, 14.198486328000115], [102.94207763700012, 14.197326660000101], [102.9390869140002, 14.194702147999976], [102.9404907230001, 14.190307617000087], [102.94067382800006, 14.186279297000056], [102.93750000000017, 14.182922363000102], [102.93328857400007, 14.17987060500019], [102.93048095699999, 14.176696777000132], [102.93292236300005, 14.173706055000139], [102.93469238300014, 14.170898437000176], [102.93652343700012, 14.166870117000144], [102.93731689500004, 14.16229248000019], [102.93890380900007, 14.158691406000116], [102.93988037100019, 14.155883789000086], [102.94091796900005, 14.15289306600016], [102.94067382800006, 14.149719238000102], [102.93927002000004, 14.146301270000095], [102.93670654300013, 14.143127441000104], [102.93371582000003, 14.140502930000139], [102.93072509800004, 14.137878418000014], [102.9273071290001, 14.135070800999983], [102.92492675800008, 14.13110351600011], [102.92388916000004, 14.127319335999971], [102.924316406, 14.124084473000096], [102.92407226600005, 14.120910645000038], [102.92407226600005, 14.11547851600011], [102.924316406, 14.11132812500017], [102.92327880900007, 14.107116699000073], [102.91992187500011, 14.103698730000133], [102.91711425800008, 14.100280762000125], [102.91412353500016, 14.09790039100011], [102.91168212900016, 14.096130371000186], [102.90832519500003, 14.095275878999985], [102.90570068400001, 14.091308594000111], [102.90429687500017, 14.087890625], [102.90148925800008, 14.083312988000046], [102.90130615200007, 14.078918457000157], [102.90148925800008, 14.073730469000054], [102.90167236300005, 14.069885254000155], [102.90167236300005, 14.066711426000097], [102.90032959000007, 14.064086914000029], [102.8992919920002, 14.060729980000076], [102.89910888700007, 14.056884766000053], [102.89770507800017, 14.053894043000184], [102.8994750980001, 14.048889160000044], [102.90087890600006, 14.043884277000075], [102.90368652300009, 14.040100098000039], [102.9028930660001, 14.03491210900006], [102.90472412100013, 14.031311034999987], [102.90728759800004, 14.028930664000143], [102.90832519500003, 14.02532959000007], [102.90948486300005, 14.021301270000038], [102.91070556600005, 14.017089844000111], [102.9061279300002, 14.016723633000083], [102.90167236300005, 14.015686035000044], [102.89910888700007, 14.012695312000119], [102.89648437500017, 14.010070801000097], [102.8941040040001, 14.007873535000044], [102.89050293000003, 14.008911133000083], [102.88751220700016, 14.010070801000097], [102.88427734400011, 14.009887695000032], [102.88189697300004, 14.007324219000054], [102.88012695300012, 14.004272461000141], [102.8765258790001, 14.00329589800009], [102.87310791000016, 14.003479004000155], [102.86932373000008, 14.004516602000024], [102.86529541000016, 14.002685547000112], [102.84967040999999, 13.986877441000104], [102.81567382800017, 13.965515137000011], [102.81347656200006, 13.958312987999989], [102.811523437, 13.9539184570001], [102.80950927700019, 13.95111084000007], [102.80767822300004, 13.948303223000039], [102.80389404300007, 13.944091797000056], [102.79827880900018, 13.942321777000188], [102.79309081999997, 13.937683105000076], [102.78289794900013, 13.93292236300016], [102.76629638700018, 13.856506348000153], [102.75610351600017, 13.846679687], [102.7498779300002, 13.835876465000013], [102.74627685500019, 13.831115723000096], [102.74169921900017, 13.823486328000115], [102.73468017600004, 13.812072754000042], [102.73309326200018, 13.80969238299997], [102.72747802700019, 13.80047607400013], [102.72332763700012, 13.793273925999983], [102.72387695300012, 13.790527344000111], [102.72747802700019, 13.787475586000028], [102.73132324200009, 13.78588867200017], [102.73291015600012, 13.78149414100011], [102.73211669900007, 13.775695801000154], [102.7257080080002, 13.77368164100011], [102.72149658200004, 13.774108887000125], [102.71649169900013, 13.774108887000125], [102.71350097700008, 13.77209472700008], [102.71087646500018, 13.769714355000133], [102.70550537100007, 13.764709473000096], [102.70251464800015, 13.762329102000024], [102.69787597700014, 13.75891113300014], [102.69512939500004, 13.756896973000096], [102.69250488300014, 13.754882812000176], [102.68872070300006, 13.752075195000089], [102.68450927700013, 13.75109863300014], [102.6793212890002, 13.749877930000139], [102.67492675800014, 13.747680664000029], [102.66430664100011, 13.742126465000126], [102.65930175800014, 13.739501953000058], [102.65570068400007, 13.737487793000184], [102.63470459000013, 13.726501465000126], [102.59912109400005, 13.70727539100011], [102.59490966800013, 13.707702637000068], [102.59167480500008, 13.707092285000044], [102.58929443400007, 13.704895020000038], [102.58532714800009, 13.702880859000118], [102.58148193400007, 13.700683594000111], [102.5786743160001, 13.698486328], [102.57751464800009, 13.694885254000155], [102.57470703100006, 13.692504883000083], [102.57110595700016, 13.69189453100006], [102.56848144500009, 13.69030761700003], [102.5667114260001, 13.687072754000155], [102.5631103520002, 13.683898926000097], [102.56072998000008, 13.679504395000038], [102.55871582000003, 13.675903320000032], [102.55609130900007, 13.67132568400018], [102.5532836910001, 13.66790771500007], [102.55072021500007, 13.66351318400001], [102.54888915999999, 13.659729004000098], [102.55212402300003, 13.656127930000025], [102.5562744140002, 13.652282715000126], [102.55810546900005, 13.64929199200003], [102.56152343700006, 13.648315430000025], [102.56488037100019, 13.64587402300009], [102.56811523400006, 13.644714355000076], [102.57067871100014, 13.641906738000046], [102.5709228520002, 13.638916016], [102.57208252000004, 13.635498047000112], [102.57373046900005, 13.632324219000054], [102.57751464800009, 13.629699707000157], [102.58148193400007, 13.628479004000098], [102.58410644500003, 13.629699707000157], [102.58752441400014, 13.628723145000151], [102.59008789100005, 13.625488281], [102.5933227540001, 13.625915527000188], [102.5963134770002, 13.623107910000158], [102.60052490200007, 13.62249755900018], [102.60308837900016, 13.619689941000047], [102.60668945300006, 13.61712646500007], [102.61090087900016, 13.616271973000039], [102.61370849600019, 13.615112305000025], [102.61712646500013, 13.613708496000129], [102.62152099600019, 13.612915039000143], [102.62347412100007, 13.610717773000033], [102.62609863300014, 13.607299805000025], [102.62170410200008, 13.60827636700003], [102.61853027300009, 13.607910156000173], [102.61431884800004, 13.608093262000068], [102.61132812500017, 13.605712891000167], [102.60729980500008, 13.606506348000039], [102.60290527300009, 13.60711669900013], [102.5985107420002, 13.60772705100004], [102.59472656200012, 13.60827636700003], [102.59191894500003, 13.607299805000025], [102.58789062500017, 13.607482910000158], [102.58367919900007, 13.606689453000172], [102.58087158199999, 13.606079102000024], [102.57769775400016, 13.604675293000128], [102.57489013700007, 13.603698730000076], [102.57330322300004, 13.600524902000188], [102.57330322300004, 13.597290039000143], [102.57049560500008, 13.594726562000062], [102.56970214800009, 13.590270996000129], [102.57012939499998, 13.5867309570001], [102.56829834000013, 13.584472656], [102.56488037100019, 13.582702637000011], [102.56250000000017, 13.579284668000128], [102.55950927700007, 13.5789184570001], [102.55609130900007, 13.578125], [102.5532836910001, 13.575683594000054], [102.54949951200007, 13.576721191], [102.54632568400018, 13.57550048800016], [102.5444946290001, 13.573303222999982], [102.54211425800008, 13.571472168000128], [102.53967285200002, 13.569091797000056], [102.53527832000003, 13.567077637000011], [102.52947998000008, 13.566284180000025], [102.52532959000007, 13.565307617000144], [102.52172851600017, 13.566894531000173], [102.51849365200002, 13.567871094000054], [102.51391601600017, 13.568725586000028], [102.51031494100005, 13.568481445000032], [102.50732421900005, 13.568725586000028], [102.50372314500015, 13.570129395000095], [102.49932861300016, 13.57049560500002], [102.49487304700011, 13.570312500000057], [102.49127197300004, 13.571716309000124], [102.48767089800009, 13.571472168000128], [102.48370361300016, 13.5711059570001], [102.47991943400018, 13.571716309000124], [102.47692871100008, 13.570129395000095], [102.47491455100004, 13.567687987999989], [102.47113037100007, 13.56610107400013], [102.46710205100004, 13.565917969], [102.46350097700014, 13.565307617000144], [102.45971679700006, 13.562683105000076], [102.45648193400018, 13.562683105000076], [102.45349121100008, 13.562500000000114], [102.45050048800016, 13.561523437], [102.4448852540001, 13.562316895000151], [102.4412841800002, 13.56170654300007], [102.43872070300012, 13.560302734000174], [102.43591308600003, 13.561279297000056], [102.43249511700014, 13.562072754000098], [102.42968750000011, 13.564880371000129], [102.42730712900004, 13.567077637000011], [102.42431640600012, 13.56951904300007], [102.41931152299998, 13.570922852000137], [102.41528320300012, 13.570129395000095], [102.41210937500006, 13.568725586000028], [102.4093017580002, 13.567504883000026], [102.40551757800006, 13.56829834000007], [102.40228271500001, 13.567687987999989], [102.39868164100017, 13.567077637000011], [102.39447021500007, 13.567504883000026], [102.39129638700018, 13.567871094000054], [102.38952636700009, 13.57049560500002], [102.38690185500019, 13.571899414000086], [102.38311767600015, 13.572692871000129], [102.37927246100008, 13.57550048800016], [102.37591552700013, 13.577514648000033], [102.37249755900012, 13.575927734000174], [102.36853027300015, 13.577514648000033], [102.36450195300006, 13.57611084000007], [102.36187744100016, 13.572875977000024], [102.35913085900012, 13.569702148000033], [102.35809326200012, 13.565673828000172], [102.35449218700018, 13.563720703000115], [102.35107421900017, 13.562500000000114], [102.34729003900009, 13.56170654300007], [102.34429931600016, 13.56072998000019], [102.34130859400011, 13.559326172000056], [102.33868408200004, 13.555908203000115], [102.33831787100002, 13.55267334000007], [102.33728027300015, 13.549499512000182], [102.33673095699999, 13.545471191000047], [102.33489990200013, 13.541503906000116], [102.33489990200013, 13.5379028320001], [102.33691406200018, 13.534912109000174], [102.34051513700012, 13.532714844000168], [102.34472656200012, 13.530700684000124], [102.34710693400012, 13.527099609000174], [102.34948730500014, 13.523498535000101], [102.3519287110002, 13.519287109000174], [102.35467529300007, 13.516113281000116], [102.35729980500014, 13.513671875000114], [102.3587036130001, 13.510498047000056], [102.3604736330002, 13.507690429999968], [102.36291503900003, 13.505676270000151], [102.36071777300015, 13.502685547000056], [102.36151123000013, 13.49969482400013], [102.3616943360002, 13.496093750000057], [102.36187744100016, 13.49188232400013], [102.36108398400017, 13.48748779300007], [102.35968017599998, 13.483093262000182], [102.35729980500014, 13.479492187000176], [102.35729980500014, 13.47570800799997], [102.39050293000014, 13.476501465000183], [102.42028808600008, 13.478515625000057], [102.4636840820001, 13.47711181600016], [102.49652099600013, 13.477478027000132], [102.51672363300003, 13.477722168000184], [102.59472656200012, 13.478515625000057], [102.68688964800015, 13.479492187000176], [102.68707275400004, 13.467102051000154], [102.6873168950001, 13.461120605000133], [102.6873168950001, 13.446899414000029], [102.6873168950001, 13.430725098000096], [102.6875, 13.412475586000028], [102.6875, 13.401672363000102], [102.68811035200008, 13.380920410000044], [102.69171142600015, 13.383483887000125], [102.69647216800007, 13.387512206999986], [102.70111084000018, 13.390502930000082], [102.70471191400003, 13.392700195000089], [102.70727539100017, 13.394287109000118], [102.71032714800015, 13.396118164000029], [102.71307373000019, 13.398071289000029], [102.71569824200009, 13.399719238000046], [102.71948242200006, 13.40148925800014], [102.72448730500014, 13.403930663999972], [102.72827148400017, 13.405517578], [102.73229980500014, 13.406311035000044], [102.73571777300015, 13.407470703000058], [102.73828125000006, 13.408874512000125], [102.7415161130001, 13.41088867200017], [102.74572753900003, 13.411682128999985], [102.77069091800007, 13.404296875], [102.8162841800002, 13.391723633000083], [102.84930419900019, 13.382690430000082], [102.86010742200006, 13.387878418000184], [102.92028808600014, 13.368103027000075], [102.92150878900014, 13.36547851600011], [102.9246826170002, 13.36547851600011], [102.98431396500013, 13.361083984000118], [102.98687744100016, 13.37609863300014], [102.98809814500004, 13.37890625000017], [102.99151611300005, 13.381103516000053], [102.99609375, 13.379882812000119], [102.99749755900007, 13.377319336000141], [103.00109863300014, 13.375671387000125], [103.00390625000017, 13.378112793000128], [103.00469970700004, 13.381286621000015], [103.00970459000013, 13.382507324000073], [103.0133056640002, 13.385070801000154], [103.01550293000014, 13.388916016000053], [103.01751709000013, 13.392089844000111], [103.02008056600016, 13.393493652000075], [103.02410888700012, 13.394104004000155], [103.0291137700001, 13.395507812000119], [103.03228759800015, 13.396911621000186], [103.0355224610002, 13.397521973000096], [103.03851318400007, 13.396118164000029], [103.0410766600001, 13.394287109000118], [103.04412841800018, 13.391906738000046], [103.04809570300006, 13.391906738000046], [103.05151367200017, 13.392272949000073], [103.0557250980001, 13.392272949000073], [103.06048584000018, 13.393127441000104], [103.06591796900017, 13.394470215000183], [103.07092285200008, 13.395874023000147], [103.07629394500015, 13.397277832000043], [103.07971191400009, 13.39892578100006], [103.0833129880001, 13.397888184000067], [103.08673095700004, 13.398315430000082], [103.09051513700012, 13.398498535000044], [103.09350585900017, 13.399475098000096], [103.09588623000019, 13.401672363000102], [103.09808349600013, 13.406311035000044], [103.1019287110002, 13.404113770000038], [103.10528564500015, 13.404724121000186], [103.10827636700014, 13.405700684000067], [103.11151123000019, 13.406677246000072], [103.11291503900009, 13.410705566000104], [103.11608886700014, 13.409729004000155], [103.11950683600003, 13.410095215000126], [103.1243286130001, 13.411682128999985], [103.12768554700006, 13.411499023000147], [103.13208007800012, 13.411499023000147], [103.13592529300007, 13.411682128999985], [103.13952636700009, 13.411926270000038], [103.14251709000001, 13.411926270000038], [103.14672851600017, 13.411926270000038], [103.14971923800016, 13.411315918000184], [103.15148925800003, 13.407897949000073], [103.15350341800007, 13.405700684000067], [103.15649414100017, 13.403503418000184], [103.15972900400004, 13.405700684000067], [103.16247558600008, 13.407470703000058], [103.16528320300017, 13.410278320000089], [103.168518066, 13.411071777000132], [103.17407226600005, 13.411071777000132], [103.17871093700006, 13.410095215000126], [103.18212890600017, 13.408325195000089], [103.185302734, 13.405517578], [103.18688964800003, 13.400695801000154], [103.19049072300004, 13.39868164100011], [103.193115234, 13.397521973000096], [103.19531250000011, 13.395690918000184], [103.198730469, 13.39392089800009], [103.20312500000011, 13.393310547000112], [103.20709228500016, 13.392517090000126], [103.21069335900006, 13.391723633000083], [103.21392822299998, 13.389709473000096], [103.21691894500003, 13.387329102000024], [103.22271728500016, 13.387084960999971], [103.22711181600005, 13.38671875000017], [103.23028564500004, 13.386291504000155], [103.23492431600005, 13.385681152000132], [103.23870849600013, 13.38549804700017], [103.24328613300008, 13.384887695000089], [103.24871826200007, 13.38452148400006], [103.25347900400016, 13.385681152000132], [103.25750732400019, 13.384094238000102], [103.26251220700016, 13.383728027000075], [103.26751709000007, 13.385681152000132], [103.27368164100005, 13.386474609000118], [103.27868652300009, 13.386901855000133], [103.28332519500003, 13.386474609000118], [103.28692627000004, 13.38549804700017], [103.29071044900002, 13.384277344000111], [103.29449462900016, 13.383117676000097], [103.29907226600011, 13.382324219000111], [103.30267334000013, 13.381896973000096], [103.30651855500008, 13.38171386700003], [103.3098754880001, 13.381530762000068], [103.3142700200001, 13.38171386700003], [103.3167114260001, 13.38330078100006], [103.32031250000017, 13.381286621000015], [103.3233032230001, 13.380920410000044], [103.32629394500009, 13.380676270000095], [103.33032226600005, 13.380493164000029], [103.33447265600012, 13.380493164000029], [103.33911132800006, 13.380126953000172], [103.34289550800014, 13.380310059000067], [103.34771728500004, 13.380310059000067], [103.35272216800018, 13.381286621000015], [103.3577270510001, 13.379882812000119], [103.36248779300018, 13.37829589800009], [103.36669921900011, 13.37670898400006], [103.37030029300018, 13.374511719000111], [103.37451171900011, 13.373107910000044], [103.37847900400004, 13.370910645000038], [103.38250732400007, 13.36853027300009], [103.38549804700017, 13.36608886700003], [103.38787841800007, 13.363525391000053], [103.39208984400017, 13.36047363300014], [103.39550781200018, 13.358520508000083], [103.39892578100006, 13.361694336000141], [103.40228271500018, 13.362487793000184], [103.40551757800006, 13.363098145000038], [103.4093017580002, 13.363708496000186], [103.41412353500004, 13.364685059000067], [103.4160766600001, 13.36828613300014], [103.41491699200009, 13.371520996000186], [103.4138793950001, 13.375915527000075], [103.4119262700001, 13.379272461000028], [103.41229248000019, 13.38391113300014], [103.41168212900004, 13.388122559000067], [103.41009521500018, 13.390686035000044], [103.40911865200013, 13.393493652000075], [103.40692138700012, 13.397888184000067], [103.40307617200006, 13.401123047000112], [103.4027099610002, 13.405090332000043], [103.40051269500009, 13.408508301000097], [103.39727783200004, 13.411071777000132], [103.39447021500018, 13.413696289000029], [103.39392089800015, 13.41870117200017], [103.39410400399998, 13.423889160000044], [103.39587402299998, 13.427673340000183], [103.39788818400012, 13.431518555000082], [103.40069580100015, 13.435729980000133], [103.4014892580002, 13.440917969000111], [103.40209960900012, 13.445678711000028], [103.4027099610002, 13.449707031000116], [103.4039306640002, 13.453491211000028], [103.40649414100011, 13.456726074000073], [103.40911865200013, 13.45867919900013], [103.41290283200004, 13.461914062000176], [103.4138793950001, 13.465698242000087], [103.41107177700019, 13.46789550799997], [103.40692138700012, 13.470275879000042], [103.40307617200006, 13.471496582000043], [103.40032959000013, 13.47570800799997], [103.40252685500013, 13.479309082000043], [103.40228271500018, 13.483703613000102], [103.40130615200013, 13.486694336000028], [103.40350341800001, 13.489318848000096], [103.40252685500013, 13.493530273000147], [103.4039306640002, 13.497924805000139], [103.40710449200009, 13.494873047000056], [103.40789794900013, 13.499084473000153], [103.41210937500006, 13.500671387000182], [103.40972900400016, 13.503295897999976], [103.41070556600016, 13.506713867000087], [103.4093017580002, 13.509277344], [103.40692138700012, 13.510925293000014], [103.40551757800006, 13.513671875000114], [103.40710449200009, 13.517089844], [103.41027832000015, 13.51812744100016], [103.41290283200004, 13.52069091800007], [103.41369628900009, 13.524902344000168], [103.41369628900009, 13.528930664000086], [103.41772460900012, 13.530517578000115], [103.41510009800015, 13.533691406000173], [103.41650390600012, 13.536682129000042], [103.41528320300012, 13.540527344000168], [103.41790771500018, 13.543090819999975], [103.41650390600012, 13.545898437000062], [103.41412353500004, 13.548889160000158], [103.41027832000015, 13.551513672000056], [103.4119262700001, 13.55609130900018], [103.41430664100011, 13.559082031000173], [103.41369628900009, 13.561889648000033], [103.4093017580002, 13.561523437], [103.40667724600007, 13.563476562000062], [103.40850830100015, 13.566528320000145], [103.40570068400012, 13.567077637000011], [103.40307617200006, 13.569274902000018], [103.40588378900009, 13.570678711000085], [103.40911865200013, 13.570678711000085], [103.41308593700018, 13.5711059570001], [103.41528320300012, 13.574279785000158], [103.41632080100015, 13.579101562000062], [103.4119262700001, 13.57647705100004], [103.40808105500014, 13.578674316000047], [103.40808105500014, 13.582519531000173], [103.41229248000019, 13.58331298800016], [103.4105224610002, 13.585693359], [103.40771484400017, 13.587524414000086], [103.40472412100007, 13.588073730000076], [103.40429687500006, 13.591491699000187], [103.40850830100015, 13.593872070000032], [103.41290283200004, 13.594299316000047], [103.41491699200009, 13.597290039000143], [103.41412353500004, 13.601074219000054], [103.410888672, 13.603088379000098], [103.40710449200009, 13.604492187000062], [103.40850830100015, 13.608703612999989], [103.40710449200009, 13.611694336000085], [103.40167236300016, 13.6121215820001], [103.39910888700012, 13.607910156000173], [103.39532470700004, 13.60931396500007], [103.39807128900009, 13.6121215820001], [103.39788818400012, 13.615295410000158], [103.3948974610002, 13.618103027000018], [103.39172363300014, 13.619689941000047], [103.39031982400007, 13.622314453000115], [103.39392089800015, 13.623107910000158], [103.3963012700001, 13.625671387000068], [103.39550781200018, 13.63031005900018], [103.39727783200004, 13.63311767600004], [103.40051269500009, 13.633300781], [103.405273437, 13.631713866999974], [103.40771484400017, 13.633483887000068], [103.40509033200004, 13.635681152000075], [103.40472412100007, 13.639709473000039], [103.40228271500018, 13.641723633000083], [103.39831543000014, 13.642272949000017], [103.39648437500006, 13.646118164000143], [103.39929199200009, 13.64929199200003], [103.40167236300016, 13.651489258000083], [103.40087890600012, 13.655090332000157], [103.40332031200018, 13.657287598000039], [103.40612793000014, 13.659301758000083], [103.40649414100011, 13.663696288999972], [103.4093017580002, 13.665527344000054], [103.41351318400012, 13.668090820000032], [103.41351318400012, 13.672119141000053], [103.41772460900012, 13.672729491999974], [103.42132568400012, 13.67468261700003], [103.42327880900012, 13.677917480000076], [103.4281005860002, 13.679870605000133], [103.4329223630001, 13.681884766000053], [103.43511962900004, 13.684875488000046], [103.43768310500019, 13.68688964800009], [103.43927002000015, 13.69030761700003], [103.43792724600007, 13.693481445000089], [103.43450927700013, 13.694519043000128], [103.43231201200012, 13.696472168000184], [103.43011474600007, 13.700500488000046], [103.42852783200004, 13.70507812500017], [103.42449951200018, 13.706481934000067], [103.4216918950001, 13.708679199000073], [103.42132568400012, 13.712707520000038], [103.42309570300012, 13.715881348000096], [103.42211914100011, 13.718688965000126], [103.42089843700018, 13.722900391000053], [103.42431640600012, 13.722900391000053], [103.42767334000001, 13.724914551000097], [103.42492675800014, 13.727478027000132], [103.4216918950001, 13.729492187000119], [103.42248535200014, 13.733703613000046], [103.41949462900004, 13.736877441000104]]], [[[103.42248535200014, 13.733703613000046], [103.42572021500018, 13.733093262000125], [103.42871093700018, 13.73632812500017], [103.4251098630001, 13.73632812500017], [103.42248535200014, 13.733703613000046]]]]}}]}