{
"type": "FeatureCollection",
"name": "banteay_meanchey_adm2",
"crs": { "type": "name", "properties": { "name": "urn:ogc:def:crs:OGC:1.3:CRS84" } },
"features": [
{ "type": "Feature", "properties": { "shapeName": "Mongkol Borei", "shapeID": "14789045B79139506572883" }, "geometry": { "type": "Polygon", "coordinates": [ [ [ 103.256504451420753, 13.384217369917824 ], [ 103.254159202966235, 13.387350549453311 ], [ 103.257694690665119, 13.386407626012149 ], [ 103.259131952861893, 13.387730324207812 ], [ 103.254849974050686, 13.389428149333837 ], [ 103.254131561743264, 13.391185089606024 ], [ 103.258641051161447, 13.392002708625334 ], [ 103.264248220464069, 13.396887172105648 ], [ 103.249963418083382, 13.396649236546592 ], [ 103.258658702484652, 13.403063918379209 ], [ 103.252922855848482, 13.403054792219233 ], [ 103.252718838892662, 13.41090171407517 ], [ 103.250412826707191, 13.412578536968306 ], [ 103.248975238999719, 13.411290324181371 ], [ 103.249986575351542, 13.408084467051088 ], [ 103.244439125029118, 13.404176679124856 ], [ 103.244077741765906, 13.411171108645309 ], [ 103.238279124203544, 13.417932218840598 ], [ 103.240475331641647, 13.420136022156759 ], [ 103.241552675672963, 13.417733513124659 ], [ 103.246769410273842, 13.419892889109708 ], [ 103.252148296030654, 13.416598025672938 ], [ 103.250541874830262, 13.421046659911315 ], [ 103.247124364179371, 13.423196173154837 ], [ 103.2468857928923, 13.426891035215988 ], [ 103.248303655821346, 13.427406736613053 ], [ 103.249199236771673, 13.424212453830123 ], [ 103.251055501132058, 13.424472475903119 ], [ 103.252950344139691, 13.428950704432243 ], [ 103.251144998034377, 13.433311819332552 ], [ 103.26173977197594, 13.432845016370086 ], [ 103.258866722021253, 13.434367172581931 ], [ 103.256710006502971, 13.439776145702758 ], [ 103.260036415968372, 13.448563915502525 ], [ 103.25514871595314, 13.450682191487815 ], [ 103.250216262276382, 13.449438796548897 ], [ 103.253822962480484, 13.455615068157922 ], [ 103.251828739306433, 13.455841187573036 ], [ 103.247128830531068, 13.45173194925877 ], [ 103.245640333956842, 13.456840481127728 ], [ 103.244053226881519, 13.457237992740302 ], [ 103.239685226438567, 13.451196325247043 ], [ 103.238962507719847, 13.454769173262212 ], [ 103.23702855117763, 13.452490498255591 ], [ 103.234911643303192, 13.452372015541298 ], [ 103.236300920594559, 13.455456412761619 ], [ 103.234307950651782, 13.457687964120641 ], [ 103.232514199081692, 13.453765863063913 ], [ 103.225737914715182, 13.451927475378945 ], [ 103.230123443794156, 13.456022242199824 ], [ 103.229876709026897, 13.457828210585829 ], [ 103.224265146267172, 13.455406279879782 ], [ 103.223094053328339, 13.456261670760513 ], [ 103.224808190228259, 13.457872702125997 ], [ 103.221053566538757, 13.457079763286647 ], [ 103.222487787981791, 13.461888456269817 ], [ 103.220137090108381, 13.464739178292268 ], [ 103.218555929353471, 13.46376067849212 ], [ 103.217349541105165, 13.457667023942751 ], [ 103.215915417571921, 13.458076354452245 ], [ 103.216861731781464, 13.46374866690736 ], [ 103.215221996452158, 13.465913448528434 ], [ 103.214970357765736, 13.461766105551115 ], [ 103.213530676487821, 13.460754037170011 ], [ 103.206995927819804, 13.461398445549595 ], [ 103.21128129860125, 13.468960049269365 ], [ 103.208085076989576, 13.471562788579705 ], [ 103.205755754324571, 13.471511617642088 ], [ 103.206342898277171, 13.468510297401146 ], [ 103.205155191336615, 13.4668436031012 ], [ 103.202437095609184, 13.471591534235714 ], [ 103.202502576521852, 13.467550111523067 ], [ 103.200733387707999, 13.46812473596929 ], [ 103.196869451816127, 13.465609730680372 ], [ 103.194594992445559, 13.467666160496227 ], [ 103.19519379262421, 13.472541440865751 ], [ 103.19340844818224, 13.470559492744552 ], [ 103.190014553895196, 13.47126053071942 ], [ 103.190710577848336, 13.477276524198746 ], [ 103.187849164559566, 13.477566805269564 ], [ 103.186979230054305, 13.475902328330664 ], [ 103.182654569443585, 13.474782411999058 ], [ 103.179208039747223, 13.477228295289528 ], [ 103.179251568025904, 13.480199185315087 ], [ 103.177305235821009, 13.480841431130912 ], [ 103.17550877019508, 13.478665646919518 ], [ 103.174304953059064, 13.480819633624799 ], [ 103.170834772741742, 13.479959137416056 ], [ 103.170569970815578, 13.484568968670638 ], [ 103.165328537608943, 13.483313946380722 ], [ 103.162762582152908, 13.489993596367324 ], [ 103.162360920376557, 13.48712339192749 ], [ 103.158410449210848, 13.486714438285095 ], [ 103.159701398264971, 13.488692988070527 ], [ 103.159191445200477, 13.49535648785103 ], [ 103.154791248392982, 13.493735079418459 ], [ 103.153794385488567, 13.494833190955534 ], [ 103.155702413240888, 13.499199922105682 ], [ 103.151904665195019, 13.49727197868329 ], [ 103.149810560775904, 13.498741978125979 ], [ 103.154867208650245, 13.503244372866778 ], [ 103.152163498218215, 13.50441862274837 ], [ 103.148469514705809, 13.503489813291976 ], [ 103.147526374175655, 13.504635207061217 ], [ 103.152619397961487, 13.508336627892524 ], [ 103.150712250167317, 13.509961854121872 ], [ 103.151537411158799, 13.51233028535542 ], [ 103.146547513815349, 13.512683188041731 ], [ 103.146789133260754, 13.514062158343808 ], [ 103.149134550310436, 13.514712165363065 ], [ 103.149047542953824, 13.519478001842286 ], [ 103.141803214558635, 13.523246329095931 ], [ 103.142486242550476, 13.52599332621195 ], [ 103.147743670992128, 13.523068917959534 ], [ 103.146570827549453, 13.526097039451129 ], [ 103.149976298559551, 13.529104811369859 ], [ 103.144255317160784, 13.530293891467609 ], [ 103.14546732497557, 13.532766887559276 ], [ 103.149638754676971, 13.534736657199177 ], [ 103.14937400195744, 13.537014668917063 ], [ 103.146833859542838, 13.534746187587562 ], [ 103.139944252526959, 13.53771151002527 ], [ 103.144949578194073, 13.539793551147261 ], [ 103.145941901689952, 13.542516440897229 ], [ 103.143871443662633, 13.5408774678107 ], [ 103.140138806989242, 13.545774906605928 ], [ 103.138341026665231, 13.542863699854994 ], [ 103.135301124299758, 13.544199089214388 ], [ 103.135396226663772, 13.541056228527529 ], [ 103.133059061032426, 13.541936950143045 ], [ 103.133536636243861, 13.544082288299601 ], [ 103.131771613195824, 13.544034558660325 ], [ 103.131999068798876, 13.54655802086064 ], [ 103.130024397103469, 13.547570316453273 ], [ 103.131746763677697, 13.551737832377357 ], [ 103.126974694288833, 13.550122181877697 ], [ 103.124670624422549, 13.550942045100243 ], [ 103.128297657177654, 13.55482103292537 ], [ 103.125207512454949, 13.558351570176278 ], [ 103.12418926727247, 13.556413811226172 ], [ 103.122035509170246, 13.556397628149925 ], [ 103.124409860745629, 13.55980082948742 ], [ 103.119093343272738, 13.560871250049706 ], [ 103.1203970469399, 13.567190687505596 ], [ 103.119323806910543, 13.568951389486717 ], [ 103.11548765151592, 13.564442291465001 ], [ 103.115880390277709, 13.566783667464625 ], [ 103.113744947098539, 13.568909287695099 ], [ 103.108497367926347, 13.565753019280116 ], [ 103.107758271046933, 13.566860406663071 ], [ 103.109571910249045, 13.569706774874916 ], [ 103.107138334332546, 13.568172781073178 ], [ 103.10590249443419, 13.569333509726363 ], [ 103.106562935654679, 13.571551662137095 ], [ 103.104110560562788, 13.570953802234394 ], [ 103.102160733088155, 13.573623092996876 ], [ 103.100438115123495, 13.568221111826086 ], [ 103.098926000597061, 13.571871265397247 ], [ 103.097460043962016, 13.569198423578664 ], [ 103.095496043906067, 13.572466900928687 ], [ 103.092411378331221, 13.569320305516451 ], [ 103.093128942124466, 13.572621540158087 ], [ 103.089872200108985, 13.573632945998963 ], [ 103.088463143004091, 13.57320762740134 ], [ 103.088973230114831, 13.571242537346086 ], [ 103.086286149143803, 13.571671011239189 ], [ 103.084861409161874, 13.569549431215997 ], [ 103.083050015496468, 13.574513302156852 ], [ 103.080476597805912, 13.573975359449257 ], [ 103.078345439114344, 13.569652986310656 ], [ 103.073900898378554, 13.568935243461993 ], [ 102.984277863505753, 13.564178768287288 ], [ 102.986153201339533, 13.552657771674077 ], [ 102.94114169932989, 13.549436307461985 ], [ 102.940577296978105, 13.547702183275449 ], [ 102.936450048826899, 13.547277285877817 ], [ 102.933686333341399, 13.544521871114922 ], [ 102.912883244861277, 13.533501308994772 ], [ 102.904110699162587, 13.533060839657223 ], [ 102.891977517112394, 13.518603846827776 ], [ 102.887549096366314, 13.517718194977261 ], [ 102.8882516505805, 13.516037620595016 ], [ 102.886315770250192, 13.514226350345233 ], [ 102.883782245825302, 13.514211733653081 ], [ 102.885016968121292, 13.511846606969996 ], [ 102.882839726877819, 13.509300167985758 ], [ 102.884058666356822, 13.507576523437331 ], [ 102.883278661275611, 13.504820483779897 ], [ 102.880720079633917, 13.50317788269982 ], [ 102.880173018232725, 13.500485936801828 ], [ 102.874990495925829, 13.499583571772666 ], [ 102.875706014046941, 13.492914835389298 ], [ 102.868214089987973, 13.493327967659402 ], [ 102.864235690729416, 13.491229232434774 ], [ 102.859689026671703, 13.495689635066846 ], [ 102.854670961610495, 13.492782133617581 ], [ 102.851710776032021, 13.495009188468988 ], [ 102.850498970168857, 13.485889851869024 ], [ 102.829152808540158, 13.484364191000866 ], [ 102.822733375637938, 13.47606615286216 ], [ 102.81063244060887, 13.472565500008983 ], [ 102.772766223714129, 13.454253848526141 ], [ 102.765684668730415, 13.453899618964424 ], [ 102.754705216992434, 13.449943400421621 ], [ 102.752024877003862, 13.450190548920904 ], [ 102.749772980119587, 13.448071772678603 ], [ 102.73606330019355, 13.443143862927633 ], [ 102.728042422065045, 13.448540639518047 ], [ 102.713719330031253, 13.464404491004075 ], [ 102.702579169770118, 13.472483742651708 ], [ 102.696081902843332, 13.47934228259809 ], [ 102.686813461082522, 13.479363228392948 ], [ 102.686927724769603, 13.466969463684041 ], [ 102.687269050241852, 13.429866024297299 ], [ 102.687279418081161, 13.428738902875136 ], [ 102.687723266828499, 13.380313268263611 ], [ 102.701320054898787, 13.39081388449938 ], [ 102.717562069888942, 13.400746013395548 ], [ 102.744974846526688, 13.412292081125706 ], [ 102.746274475416868, 13.410886153220448 ], [ 102.816322610985779, 13.391625284418152 ], [ 102.849192256046038, 13.382579148760451 ], [ 102.8600381499311, 13.387744227230254 ], [ 102.921205584772721, 13.369504025743023 ], [ 102.920715985044822, 13.365917918613651 ], [ 102.922355918133832, 13.364918102524388 ], [ 102.983983102433015, 13.361071789019066 ], [ 102.986804672801085, 13.376109946575564 ], [ 102.988713662776405, 13.379447526012601 ], [ 102.992198262988921, 13.381047739992708 ], [ 102.996376219861475, 13.379911663019994 ], [ 102.99636228596728, 13.377863435725846 ], [ 102.998546515997759, 13.376253984786965 ], [ 103.002015600802153, 13.375786613260711 ], [ 103.004245229555508, 13.378186736327411 ], [ 103.003760089964402, 13.381647663078054 ], [ 103.011543454322108, 13.382982172620835 ], [ 103.015347659325982, 13.387959008587067 ], [ 103.016220483497762, 13.39156371465336 ], [ 103.019755676382175, 13.393450174307409 ], [ 103.02912052428546, 13.39500732158646 ], [ 103.030009443541459, 13.396626526330836 ], [ 103.036340769238407, 13.398016666646139 ], [ 103.041257719777008, 13.394428562912989 ], [ 103.042405232469079, 13.391356974365948 ], [ 103.059528330099383, 13.392082313001833 ], [ 103.069066766828939, 13.39586048090162 ], [ 103.075911148820637, 13.396493515352837 ], [ 103.079235079794856, 13.399000411194001 ], [ 103.084693304860579, 13.397616273739366 ], [ 103.092019463463615, 13.398727739615362 ], [ 103.096143639750963, 13.401086955281311 ], [ 103.097781270761047, 13.406744060885892 ], [ 103.102452216748134, 13.402681074130699 ], [ 103.111648388924735, 13.406588932091003 ], [ 103.113330392034314, 13.411323880940627 ], [ 103.115829186679122, 13.409367744939964 ], [ 103.12424501325161, 13.4121768913322 ], [ 103.147787043070863, 13.411927174818057 ], [ 103.150375453818228, 13.410823169138498 ], [ 103.155065637778435, 13.402807847738769 ], [ 103.15801337914921, 13.40337505729309 ], [ 103.160320040426612, 13.40648634859245 ], [ 103.163164898246407, 13.407502406900184 ], [ 103.166007329993946, 13.411885171877874 ], [ 103.172977568296204, 13.410313373559497 ], [ 103.176066853172529, 13.410994392535697 ], [ 103.181194065873228, 13.409214700661629 ], [ 103.184974599334652, 13.40598472750948 ], [ 103.187315016490047, 13.399408058147388 ], [ 103.197790980265438, 13.393940238269563 ], [ 103.210973742113978, 13.39176303222483 ], [ 103.215622467217685, 13.388630174548734 ], [ 103.220880527700118, 13.387285486081559 ], [ 103.256504451420753, 13.384217369917824 ] ] ] } },
{ "type": "Feature", "properties": { "shapeName": "Phnum Srok", "shapeID": "14789045B65441880035509" }, "geometry": { "type": "Polygon", "coordinates": [ [ [ 103.439357384592128, 13.915802132425098 ], [ 103.435626100234785, 13.918648124900443 ], [ 103.42686893886669, 13.919499071262585 ], [ 103.411518816249099, 13.928385396301307 ], [ 103.390945667708863, 13.931910018837939 ], [ 103.386311240674885, 13.935431631629244 ], [ 103.361226272440177, 13.969197816292679 ], [ 103.343479038073113, 14.000440449388059 ], [ 103.332602782584672, 14.014999378463989 ], [ 103.331423490763811, 14.021667372879405 ], [ 103.328236459813851, 14.027001867930963 ], [ 103.300707731445598, 13.991588475231509 ], [ 103.277594605943008, 13.966184710617082 ], [ 103.264509869255591, 13.955014023298713 ], [ 103.250432669809896, 13.951529461715641 ], [ 103.218928463352299, 13.95006262804608 ], [ 103.211461052854588, 13.947844348674112 ], [ 103.207155040988653, 13.944891097227039 ], [ 103.203556218203232, 13.938419278635548 ], [ 103.204336912366287, 13.929336106785993 ], [ 103.213692454217409, 13.885965277837959 ], [ 103.221580481732218, 13.863321107104239 ], [ 103.225957517472182, 13.862174519211557 ], [ 103.229731617856785, 13.858913057560144 ], [ 103.23251628991973, 13.849052095875434 ], [ 103.223690870629355, 13.842157603148239 ], [ 103.205021773586978, 13.838602877151791 ], [ 103.183100948277499, 13.825420895801498 ], [ 103.18150820379033, 13.822876177694505 ], [ 103.180951516005067, 13.78601365888038 ], [ 103.17961730266947, 13.776460701880294 ], [ 103.157860326188484, 13.748630112642942 ], [ 103.279333139418, 13.712811218106316 ], [ 103.263337735031669, 13.680343761496481 ], [ 103.299640758579457, 13.660791873681989 ], [ 103.308161902171051, 13.678242883590618 ], [ 103.406365739393181, 13.659448647993262 ], [ 103.40630947459502, 13.663738476624159 ], [ 103.413794865830639, 13.66687333345315 ], [ 103.412597761897061, 13.671840585218012 ], [ 103.419549697125021, 13.672933551158863 ], [ 103.424161997251844, 13.678821436504284 ], [ 103.431504608922822, 13.680683780244365 ], [ 103.438130982366545, 13.687397724757286 ], [ 103.439734900437401, 13.691301482535431 ], [ 103.438430143219975, 13.692584734660544 ], [ 103.431833042281497, 13.695384721539344 ], [ 103.432870415559066, 13.698361799996469 ], [ 103.428756204970909, 13.700780804057731 ], [ 103.429159776686205, 13.705221602496612 ], [ 103.422389086902243, 13.706907242752241 ], [ 103.4208780979247, 13.70975509577849 ], [ 103.423326394728477, 13.716510534056683 ], [ 103.419984973157085, 13.720954524023437 ], [ 103.420362897206218, 13.72294102962708 ], [ 103.425505665970874, 13.72285409369703 ], [ 103.428405083097957, 13.724512035920812 ], [ 103.421567418183002, 13.728349609533947 ], [ 103.421413933418705, 13.730949638381203 ], [ 103.42474297895275, 13.7333142979121 ], [ 103.427192915294711, 13.732673454717068 ], [ 103.430213377161323, 13.736351280194617 ], [ 103.427305203982854, 13.737154196624255 ], [ 103.421952835028193, 13.73457551321528 ], [ 103.418650532725266, 13.736025496628486 ], [ 103.419357020594106, 13.738353073113871 ], [ 103.42184925653018, 13.738439076964552 ], [ 103.424293906501148, 13.741062491061394 ], [ 103.424033652922489, 13.744808678622775 ], [ 103.421415634463202, 13.742481309898871 ], [ 103.420020193402451, 13.744170601802159 ], [ 103.425877007111268, 13.75098513645127 ], [ 103.428817868180758, 13.749034493429164 ], [ 103.431587022267209, 13.753900496808763 ], [ 103.424664393480256, 13.753591959416964 ], [ 103.422680143410005, 13.754910279947998 ], [ 103.425252594086516, 13.755386593589934 ], [ 103.423345953581531, 13.75818895991469 ], [ 103.424917470755361, 13.762068882916129 ], [ 103.423286202313435, 13.764909159521189 ], [ 103.423890982974484, 13.767033831855734 ], [ 103.421845095655897, 13.768776575805971 ], [ 103.420549612244798, 13.768206715401444 ], [ 103.418485679394934, 13.771167331005707 ], [ 103.413979323574651, 13.769677406523963 ], [ 103.411248769458538, 13.772139895593464 ], [ 103.409689825314274, 13.776514899974256 ], [ 103.411876376493879, 13.778657715410549 ], [ 103.413217311469637, 13.774423656195919 ], [ 103.414605692566681, 13.773903815202312 ], [ 103.415906534803582, 13.779084800795651 ], [ 103.422837211757439, 13.773947649620947 ], [ 103.423191601469938, 13.776005187032657 ], [ 103.419585781423848, 13.779567189629883 ], [ 103.421002764940781, 13.780084734811705 ], [ 103.424563811855919, 13.777768691536824 ], [ 103.425406864119424, 13.784796343155818 ], [ 103.42208891348119, 13.7896302067818 ], [ 103.427770423878982, 13.792394147110029 ], [ 103.428078745499732, 13.796116842080247 ], [ 103.425971000668184, 13.797865978796485 ], [ 103.42592626388408, 13.793416194120407 ], [ 103.424512964319973, 13.792378943277825 ], [ 103.420944558235576, 13.797516239484979 ], [ 103.427971858150457, 13.80077016762586 ], [ 103.434094882097313, 13.801352739612799 ], [ 103.434324285650888, 13.804095316106469 ], [ 103.429262516324926, 13.80256477672642 ], [ 103.429103707073153, 13.808196252689946 ], [ 103.434203370597047, 13.808224296793863 ], [ 103.435554381386098, 13.812206731499343 ], [ 103.439696023446359, 13.811529161736974 ], [ 103.440078754545908, 13.816303130735125 ], [ 103.441756067733593, 13.816964603994133 ], [ 103.439671299514217, 13.818805512461738 ], [ 103.435012549837424, 13.815954514803366 ], [ 103.430480746982241, 13.817430594148954 ], [ 103.429158747127858, 13.820732707708949 ], [ 103.432896520382528, 13.824539470783588 ], [ 103.425516376910608, 13.824513689061497 ], [ 103.427409845406444, 13.826175466135394 ], [ 103.424686485324557, 13.833581331356342 ], [ 103.421248912285733, 13.833785196552652 ], [ 103.422724767449992, 13.836423932670245 ], [ 103.426112827403003, 13.835937258921629 ], [ 103.424397593895904, 13.839824339366659 ], [ 103.425789402482735, 13.843235362160559 ], [ 103.42398921328008, 13.84397403168157 ], [ 103.421491955663967, 13.842538827493563 ], [ 103.418018457552321, 13.843632750186041 ], [ 103.422917080306519, 13.845334292343725 ], [ 103.425831163810017, 13.852535696978082 ], [ 103.425509649054419, 13.853743735948211 ], [ 103.421774795086506, 13.853145711432816 ], [ 103.421735882231346, 13.857966661285895 ], [ 103.424327377431624, 13.859898504307647 ], [ 103.427728345032961, 13.857329552229842 ], [ 103.428272986407706, 13.858623377241061 ], [ 103.4260794106345, 13.861392181864323 ], [ 103.427955110178431, 13.863758911960826 ], [ 103.42704236056133, 13.865995863597433 ], [ 103.431159987465506, 13.866543176415243 ], [ 103.428626833395469, 13.874653035504911 ], [ 103.42478239287621, 13.876619149343732 ], [ 103.429695963997077, 13.880632462612789 ], [ 103.433318655709741, 13.877636658070264 ], [ 103.435336207667831, 13.879444967661295 ], [ 103.43388426064277, 13.880641255393934 ], [ 103.433813192139624, 13.882958192100279 ], [ 103.435582252816232, 13.884877896859965 ], [ 103.434186564338304, 13.891125123382562 ], [ 103.43517731094019, 13.892138200685023 ], [ 103.437976950746858, 13.890479371584842 ], [ 103.437217722917381, 13.895860675581405 ], [ 103.440784076988322, 13.895260904946197 ], [ 103.442728317763397, 13.89958834946672 ], [ 103.436695345290971, 13.903642230503364 ], [ 103.439737914129367, 13.906012988923045 ], [ 103.435037412603336, 13.910423326510527 ], [ 103.436997352891098, 13.911635828417957 ], [ 103.440814690951669, 13.910643363744409 ], [ 103.439357384592128, 13.915802132425098 ] ] ] } },
{ "type": "Feature", "properties": { "shapeName": "Preah Netr Preah", "shapeID": "14789045B34870424787449" }, "geometry": { "type": "Polygon", "coordinates": [ [ [ 103.256504451420753, 13.384217369917824 ], [ 103.279706872168717, 13.386838615302892 ], [ 103.302697456185143, 13.381745863135766 ], [ 103.339103650773708, 13.380110927812183 ], [ 103.352056217512512, 13.381534591755772 ], [ 103.375498168046207, 13.372527349792138 ], [ 103.394875370507634, 13.357935105454036 ], [ 103.399920201674064, 13.362096855177512 ], [ 103.413221997725302, 13.363682237379715 ], [ 103.415552441587948, 13.367226699669748 ], [ 103.414012658133672, 13.368494497617071 ], [ 103.414967060149294, 13.373607871052656 ], [ 103.411375772390628, 13.379490223014713 ], [ 103.412686404578707, 13.385776634206019 ], [ 103.407632384002113, 13.395297831282837 ], [ 103.408069829191035, 13.397302813438914 ], [ 103.402642391227175, 13.40030580854158 ], [ 103.403310352969697, 13.404144792937624 ], [ 103.401905307738005, 13.406935613230358 ], [ 103.39923520130894, 13.409684463624494 ], [ 103.397297927810328, 13.409078289925668 ], [ 103.39738168008212, 13.412133042791943 ], [ 103.39381749753386, 13.413773230284908 ], [ 103.393505362550457, 13.424223446753983 ], [ 103.398385129827602, 13.430719262931799 ], [ 103.397264958283017, 13.432341056386063 ], [ 103.400918152620719, 13.435622107901182 ], [ 103.402884880119899, 13.452755198261938 ], [ 103.406096516985031, 13.457322967631288 ], [ 103.414193583758191, 13.462447570037343 ], [ 103.41434381861184, 13.465960885954043 ], [ 103.40825017420984, 13.469841961566173 ], [ 103.401586050531932, 13.47083470296872 ], [ 103.40228412266913, 13.472756511654895 ], [ 103.399141833424622, 13.475994335170007 ], [ 103.403841849628648, 13.478382777596781 ], [ 103.401108519920726, 13.480079143820493 ], [ 103.401571635391207, 13.4834417260157 ], [ 103.403971289608322, 13.483870041484201 ], [ 103.400750519713696, 13.486982773192803 ], [ 103.404235072107568, 13.489668904749902 ], [ 103.403930411569121, 13.491160139950466 ], [ 103.401579321019383, 13.491854527587682 ], [ 103.40337646900926, 13.4936339210438 ], [ 103.402149656432954, 13.49820742476223 ], [ 103.403826766406667, 13.498930752643783 ], [ 103.405987237927221, 13.494753432465552 ], [ 103.408500366609417, 13.493508635263174 ], [ 103.407583750122924, 13.49978606194453 ], [ 103.412354949265108, 13.499358179130923 ], [ 103.413492472635511, 13.500400418188972 ], [ 103.412422909246743, 13.502192247094221 ], [ 103.40841569496942, 13.502455297846341 ], [ 103.410922107665954, 13.506084012660738 ], [ 103.405679900493197, 13.512313203330908 ], [ 103.405592048081431, 13.515095371142571 ], [ 103.408577437463805, 13.517286237235771 ], [ 103.410536840686717, 13.514685626955226 ], [ 103.413803695606916, 13.513654323200686 ], [ 103.414172945294979, 13.515506161583655 ], [ 103.410199529663288, 13.518484289561114 ], [ 103.411696208498114, 13.520292378156546 ], [ 103.414575485650701, 13.520191847088711 ], [ 103.411577408277822, 13.521732821508794 ], [ 103.412658204817845, 13.524285930406487 ], [ 103.415146772873186, 13.524527096671287 ], [ 103.412145129744445, 13.528439804860863 ], [ 103.417951081574159, 13.530134480114535 ], [ 103.414171293475363, 13.534102953692223 ], [ 103.417298751495224, 13.535836512693162 ], [ 103.414167886295459, 13.539855039785619 ], [ 103.418174468242327, 13.542408628518707 ], [ 103.414099392368158, 13.547574981513685 ], [ 103.415630608863665, 13.549434189035658 ], [ 103.411348611690059, 13.549169460425587 ], [ 103.409592366453992, 13.551208393399309 ], [ 103.415556752771678, 13.560581606064673 ], [ 103.413031169415945, 13.562194481942731 ], [ 103.409757722554474, 13.55889887126021 ], [ 103.408108436471053, 13.559142881724371 ], [ 103.407005987903673, 13.560612049653782 ], [ 103.410066702937542, 13.561988978187538 ], [ 103.410023887890844, 13.56321038915886 ], [ 103.406803109722858, 13.562426308283692 ], [ 103.406016325333056, 13.563371483215789 ], [ 103.408805050807615, 13.566528312293233 ], [ 103.403768153341815, 13.567582093720521 ], [ 103.402558846142824, 13.569457777776634 ], [ 103.413198262589788, 13.570984878416594 ], [ 103.416972096958645, 13.577320881323015 ], [ 103.417230596059767, 13.580190087447258 ], [ 103.412885914883233, 13.576225946653469 ], [ 103.409152471371357, 13.576863911757828 ], [ 103.407845586034398, 13.58296397225112 ], [ 103.412444448503777, 13.582620000534076 ], [ 103.413027628008138, 13.583607843985941 ], [ 103.403626554102843, 13.588756930479251 ], [ 103.406281153324173, 13.593847271961613 ], [ 103.412780595364538, 13.593982951451096 ], [ 103.414812077628056, 13.596034222413364 ], [ 103.414763025598631, 13.599588572343711 ], [ 103.41311515094003, 13.602027697920034 ], [ 103.405874018027376, 13.605106738546043 ], [ 103.408691165969103, 13.608348350131198 ], [ 103.408094555908633, 13.612144371192507 ], [ 103.405813101432969, 13.610281262627375 ], [ 103.401623920253485, 13.613279115164243 ], [ 103.400531647921468, 13.608511865136823 ], [ 103.397515868863209, 13.607511725268145 ], [ 103.394669092363728, 13.608434581966776 ], [ 103.394541623051111, 13.610121812601401 ], [ 103.398331547875657, 13.612043315938719 ], [ 103.398392752958102, 13.614235692939378 ], [ 103.389230552841454, 13.621494817101645 ], [ 103.39662354007109, 13.624269007208449 ], [ 103.395253299330193, 13.630706172621956 ], [ 103.397426704883003, 13.633271480355958 ], [ 103.40557845427314, 13.631549984698193 ], [ 103.408813852552086, 13.633792090555291 ], [ 103.404248466871024, 13.636276823045181 ], [ 103.403605071822525, 13.641762822749101 ], [ 103.39872951535844, 13.641725788943356 ], [ 103.396228493841051, 13.6448078003595 ], [ 103.397892381626221, 13.648333618919235 ], [ 103.401826335134643, 13.651089911964389 ], [ 103.400291050716916, 13.655471893367409 ], [ 103.406365739393181, 13.659448647993262 ], [ 103.308161902171051, 13.678242883590618 ], [ 103.299640758579457, 13.660791873681989 ], [ 103.263337735031669, 13.680343761496481 ], [ 103.279333139418, 13.712811218106316 ], [ 103.157860326188484, 13.748630112642942 ], [ 103.140209990574746, 13.734477523486811 ], [ 103.137797639577514, 13.733957728434319 ], [ 103.084218901624084, 13.740835411758976 ], [ 103.073266613788945, 13.73949049578656 ], [ 103.059594035447546, 13.735109704293025 ], [ 103.044964440175931, 13.722490871542982 ], [ 103.045010718395304, 13.701433854943609 ], [ 103.027877517942485, 13.7005703264603 ], [ 103.019634425502971, 13.689162541383556 ], [ 103.014520347859587, 13.68522759796017 ], [ 103.010650576060257, 13.671816730325556 ], [ 103.006981227178983, 13.668205069476333 ], [ 103.011200244678932, 13.633834783230819 ], [ 103.066747877475862, 13.635605116979971 ], [ 103.065591558472946, 13.626596871163796 ], [ 103.083050015496468, 13.574513302156852 ], [ 103.084861409161874, 13.569549431215997 ], [ 103.086286149143803, 13.571671011239189 ], [ 103.088973230114831, 13.571242537346086 ], [ 103.088463143004091, 13.57320762740134 ], [ 103.089872200108985, 13.573632945998963 ], [ 103.093128942124466, 13.572621540158087 ], [ 103.092411378331221, 13.569320305516451 ], [ 103.095496043906067, 13.572466900928687 ], [ 103.097460043962016, 13.569198423578664 ], [ 103.098926000597061, 13.571871265397247 ], [ 103.100438115123495, 13.568221111826086 ], [ 103.102160733088155, 13.573623092996876 ], [ 103.104110560562788, 13.570953802234394 ], [ 103.106562935654679, 13.571551662137095 ], [ 103.10590249443419, 13.569333509726363 ], [ 103.107138334332546, 13.568172781073178 ], [ 103.109571910249045, 13.569706774874916 ], [ 103.107758271046933, 13.566860406663071 ], [ 103.108497367926347, 13.565753019280116 ], [ 103.113744947098539, 13.568909287695099 ], [ 103.115880390277709, 13.566783667464625 ], [ 103.11548765151592, 13.564442291465001 ], [ 103.119323806910543, 13.568951389486717 ], [ 103.1203970469399, 13.567190687505596 ], [ 103.119093343272738, 13.560871250049706 ], [ 103.124409860745629, 13.55980082948742 ], [ 103.122035509170246, 13.556397628149925 ], [ 103.12418926727247, 13.556413811226172 ], [ 103.125207512454949, 13.558351570176278 ], [ 103.128297657177654, 13.55482103292537 ], [ 103.124670624422549, 13.550942045100243 ], [ 103.126974694288833, 13.550122181877697 ], [ 103.131746763677697, 13.551737832377357 ], [ 103.130024397103469, 13.547570316453273 ], [ 103.131999068798876, 13.54655802086064 ], [ 103.131771613195824, 13.544034558660325 ], [ 103.133536636243861, 13.544082288299601 ], [ 103.133059061032426, 13.541936950143045 ], [ 103.135396226663772, 13.541056228527529 ], [ 103.135301124299758, 13.544199089214388 ], [ 103.138341026665231, 13.542863699854994 ], [ 103.140138806989242, 13.545774906605928 ], [ 103.143871443662633, 13.5408774678107 ], [ 103.145941901689952, 13.542516440897229 ], [ 103.144949578194073, 13.539793551147261 ], [ 103.139944252526959, 13.53771151002527 ], [ 103.146833859542838, 13.534746187587562 ], [ 103.14937400195744, 13.537014668917063 ], [ 103.149638754676971, 13.534736657199177 ], [ 103.14546732497557, 13.532766887559276 ], [ 103.144255317160784, 13.530293891467609 ], [ 103.149976298559551, 13.529104811369859 ], [ 103.146570827549453, 13.526097039451129 ], [ 103.147743670992128, 13.523068917959534 ], [ 103.142486242550476, 13.52599332621195 ], [ 103.141803214558635, 13.523246329095931 ], [ 103.149047542953824, 13.519478001842286 ], [ 103.149134550310436, 13.514712165363065 ], [ 103.146789133260754, 13.514062158343808 ], [ 103.146547513815349, 13.512683188041731 ], [ 103.151537411158799, 13.51233028535542 ], [ 103.150712250167317, 13.509961854121872 ], [ 103.152619397961487, 13.508336627892524 ], [ 103.147526374175655, 13.504635207061217 ], [ 103.148469514705809, 13.503489813291976 ], [ 103.152163498218215, 13.50441862274837 ], [ 103.154867208650245, 13.503244372866778 ], [ 103.149810560775904, 13.498741978125979 ], [ 103.151904665195019, 13.49727197868329 ], [ 103.155702413240888, 13.499199922105682 ], [ 103.153794385488567, 13.494833190955534 ], [ 103.154791248392982, 13.493735079418459 ], [ 103.159191445200477, 13.49535648785103 ], [ 103.159701398264971, 13.488692988070527 ], [ 103.158410449210848, 13.486714438285095 ], [ 103.162360920376557, 13.48712339192749 ], [ 103.162762582152908, 13.489993596367324 ], [ 103.165328537608943, 13.483313946380722 ], [ 103.170569970815578, 13.484568968670638 ], [ 103.170834772741742, 13.479959137416056 ], [ 103.174304953059064, 13.480819633624799 ], [ 103.17550877019508, 13.478665646919518 ], [ 103.177305235821009, 13.480841431130912 ], [ 103.179251568025904, 13.480199185315087 ], [ 103.179208039747223, 13.477228295289528 ], [ 103.182654569443585, 13.474782411999058 ], [ 103.186979230054305, 13.475902328330664 ], [ 103.187849164559566, 13.477566805269564 ], [ 103.190710577848336, 13.477276524198746 ], [ 103.190014553895196, 13.47126053071942 ], [ 103.19340844818224, 13.470559492744552 ], [ 103.19519379262421, 13.472541440865751 ], [ 103.194594992445559, 13.467666160496227 ], [ 103.196869451816127, 13.465609730680372 ], [ 103.200733387707999, 13.46812473596929 ], [ 103.202502576521852, 13.467550111523067 ], [ 103.202437095609184, 13.471591534235714 ], [ 103.205155191336615, 13.4668436031012 ], [ 103.206342898277171, 13.468510297401146 ], [ 103.205755754324571, 13.471511617642088 ], [ 103.208085076989576, 13.471562788579705 ], [ 103.21128129860125, 13.468960049269365 ], [ 103.206995927819804, 13.461398445549595 ], [ 103.213530676487821, 13.460754037170011 ], [ 103.214970357765736, 13.461766105551115 ], [ 103.215221996452158, 13.465913448528434 ], [ 103.216861731781464, 13.46374866690736 ], [ 103.215915417571921, 13.458076354452245 ], [ 103.217349541105165, 13.457667023942751 ], [ 103.218555929353471, 13.46376067849212 ], [ 103.220137090108381, 13.464739178292268 ], [ 103.222487787981791, 13.461888456269817 ], [ 103.221053566538757, 13.457079763286647 ], [ 103.224808190228259, 13.457872702125997 ], [ 103.223094053328339, 13.456261670760513 ], [ 103.224265146267172, 13.455406279879782 ], [ 103.229876709026897, 13.457828210585829 ], [ 103.230123443794156, 13.456022242199824 ], [ 103.225737914715182, 13.451927475378945 ], [ 103.232514199081692, 13.453765863063913 ], [ 103.234307950651782, 13.457687964120641 ], [ 103.236300920594559, 13.455456412761619 ], [ 103.234911643303192, 13.452372015541298 ], [ 103.23702855117763, 13.452490498255591 ], [ 103.238962507719847, 13.454769173262212 ], [ 103.239685226438567, 13.451196325247043 ], [ 103.244053226881519, 13.457237992740302 ], [ 103.245640333956842, 13.456840481127728 ], [ 103.247128830531068, 13.45173194925877 ], [ 103.251828739306433, 13.455841187573036 ], [ 103.253822962480484, 13.455615068157922 ], [ 103.250216262276382, 13.449438796548897 ], [ 103.25514871595314, 13.450682191487815 ], [ 103.260036415968372, 13.448563915502525 ], [ 103.256710006502971, 13.439776145702758 ], [ 103.258866722021253, 13.434367172581931 ], [ 103.26173977197594, 13.432845016370086 ], [ 103.251144998034377, 13.433311819332552 ], [ 103.252950344139691, 13.428950704432243 ], [ 103.251055501132058, 13.424472475903119 ], [ 103.249199236771673, 13.424212453830123 ], [ 103.248303655821346, 13.427406736613053 ], [ 103.2468857928923, 13.426891035215988 ], [ 103.247124364179371, 13.423196173154837 ], [ 103.250541874830262, 13.421046659911315 ], [ 103.252148296030654, 13.416598025672938 ], [ 103.246769410273842, 13.419892889109708 ], [ 103.241552675672963, 13.417733513124659 ], [ 103.240475331641647, 13.420136022156759 ], [ 103.238279124203544, 13.417932218840598 ], [ 103.244077741765906, 13.411171108645309 ], [ 103.244439125029118, 13.404176679124856 ], [ 103.249986575351542, 13.408084467051088 ], [ 103.248975238999719, 13.411290324181371 ], [ 103.250412826707191, 13.412578536968306 ], [ 103.252718838892662, 13.41090171407517 ], [ 103.252922855848482, 13.403054792219233 ], [ 103.258658702484652, 13.403063918379209 ], [ 103.249963418083382, 13.396649236546592 ], [ 103.264248220464069, 13.396887172105648 ], [ 103.258641051161447, 13.392002708625334 ], [ 103.254131561743264, 13.391185089606024 ], [ 103.254849974050686, 13.389428149333837 ], [ 103.259131952861893, 13.387730324207812 ], [ 103.257694690665119, 13.386407626012149 ], [ 103.254159202966235, 13.387350549453311 ], [ 103.256504451420753, 13.384217369917824 ] ] ] } },
{ "type": "Feature", "properties": { "shapeName": "Ou Chrov", "shapeID": "14789045B98105174754814" }, "geometry": { "type": "Polygon", "coordinates": [ [ [ 102.882839726877819, 13.509300167985758 ], [ 102.879174183141473, 13.512017484993441 ], [ 102.877151751749352, 13.516475823829451 ], [ 102.877995045573783, 13.535119075932355 ], [ 102.869362266573745, 13.543835038490259 ], [ 102.870604447270807, 13.598037676199647 ], [ 102.881915808840176, 13.609147675969362 ], [ 102.889597066028912, 13.612286568302656 ], [ 102.897786507584854, 13.611133663315117 ], [ 102.907960064166573, 13.607576406971607 ], [ 102.919186387882235, 13.610455020196827 ], [ 102.92256641453244, 13.60652732981216 ], [ 102.927806349041148, 13.616885596586396 ], [ 102.926697198022552, 13.629155343014588 ], [ 102.92878831937584, 13.636412527386076 ], [ 102.92713404932384, 13.636276731883134 ], [ 102.91466351398293, 13.650313978256438 ], [ 102.914199552562749, 13.718191662733448 ], [ 102.913371531880145, 13.740647987700386 ], [ 102.868945192992655, 13.740712110114941 ], [ 102.84389358585922, 13.751836303933572 ], [ 102.817251424527242, 13.753595451169634 ], [ 102.81100440661092, 13.756631581548987 ], [ 102.80955713222005, 13.755664265203476 ], [ 102.793438650419944, 13.759570928844592 ], [ 102.787197231817174, 13.759066526429683 ], [ 102.748713384696956, 13.76862237483035 ], [ 102.748282881758001, 13.823203269813995 ], [ 102.741590365881123, 13.823486237412366 ], [ 102.723219655604993, 13.793260059824814 ], [ 102.724307913247245, 13.789528195650359 ], [ 102.73248859821112, 13.784846416672812 ], [ 102.732102141131278, 13.773563871226308 ], [ 102.715550470380521, 13.773775611758518 ], [ 102.688584016236959, 13.751927607878219 ], [ 102.678162634566718, 13.74943297265933 ], [ 102.656554039350112, 13.737989550684775 ], [ 102.65651417068544, 13.722902250527953 ], [ 102.712096625178461, 13.723395239186504 ], [ 102.712638332212308, 13.69636749448337 ], [ 102.722868196233406, 13.696414431260024 ], [ 102.725695269788829, 13.685955455808756 ], [ 102.724985399447306, 13.679212704645821 ], [ 102.726228070079443, 13.673791301195564 ], [ 102.730390344287144, 13.668130072128822 ], [ 102.741933554156276, 13.661690077893571 ], [ 102.745165089121642, 13.65618833346673 ], [ 102.74637208562487, 13.629413208213494 ], [ 102.752374364363419, 13.625327930838749 ], [ 102.757685278001816, 13.618745673801515 ], [ 102.754522032658301, 13.599585523503126 ], [ 102.735825427283189, 13.599681659798625 ], [ 102.72970817917809, 13.597980293774775 ], [ 102.721128581190442, 13.588857006691788 ], [ 102.720577899424924, 13.586914901337138 ], [ 102.723258883212395, 13.578473892744658 ], [ 102.718363562479269, 13.568845462720491 ], [ 102.720346633820284, 13.567540436829635 ], [ 102.720116995112434, 13.563466617626485 ], [ 102.721719450172131, 13.563368665082068 ], [ 102.722767996786104, 13.56558533017285 ], [ 102.723440927596414, 13.563862846045383 ], [ 102.725115007117523, 13.564300294860175 ], [ 102.726501960178737, 13.561991439748747 ], [ 102.728043341296797, 13.561923020631163 ], [ 102.727222270236354, 13.559682538748113 ], [ 102.729318509352495, 13.558006240249297 ], [ 102.729336498698103, 13.550978898956021 ], [ 102.73354553045661, 13.547011032687738 ], [ 102.73323357777312, 13.544512609404705 ], [ 102.73798789906354, 13.538297184350819 ], [ 102.740195812296022, 13.531262623263542 ], [ 102.739656063884283, 13.528508826384245 ], [ 102.749500202203365, 13.525811095406759 ], [ 102.756839905968064, 13.51774835992151 ], [ 102.75915931148954, 13.517947001938763 ], [ 102.76148275292455, 13.516216388997115 ], [ 102.761466598790406, 13.507459259964572 ], [ 102.780589660692669, 13.495836610708796 ], [ 102.783872997604817, 13.495310707827624 ], [ 102.785110845094891, 13.4969636485111 ], [ 102.787954483089635, 13.497402867537714 ], [ 102.789938323295729, 13.495470540136823 ], [ 102.794712486079831, 13.494977660168074 ], [ 102.794414511515114, 13.492944662925117 ], [ 102.795915204143, 13.491692506862824 ], [ 102.800404231500764, 13.490558556652577 ], [ 102.804761126778374, 13.491338692273937 ], [ 102.810233518766196, 13.499349822124838 ], [ 102.812208118338319, 13.499384315518268 ], [ 102.813205723578477, 13.497804167290605 ], [ 102.816497927269154, 13.499181548720042 ], [ 102.830582673478574, 13.486212104562151 ], [ 102.829152808540158, 13.484364191000866 ], [ 102.850498970168857, 13.485889851869024 ], [ 102.851710776032021, 13.495009188468988 ], [ 102.854670961610495, 13.492782133617581 ], [ 102.859689026671703, 13.495689635066846 ], [ 102.864235690729416, 13.491229232434774 ], [ 102.868214089987973, 13.493327967659402 ], [ 102.875706014046941, 13.492914835389298 ], [ 102.874990495925829, 13.499583571772666 ], [ 102.880173018232725, 13.500485936801828 ], [ 102.880720079633917, 13.50317788269982 ], [ 102.883278661275611, 13.504820483779897 ], [ 102.884058666356822, 13.507576523437331 ], [ 102.882839726877819, 13.509300167985758 ] ] ] } },
{ "type": "Feature", "properties": { "shapeName": "Serei Saophoan", "shapeID": "14789045B91793328513154" }, "geometry": { "type": "Polygon", "coordinates": [ [ [ 103.083050015496468, 13.574513302156852 ], [ 103.065591558472946, 13.626596871163796 ], [ 103.066747877475862, 13.635605116979971 ], [ 103.011200244678932, 13.633834783230819 ], [ 103.006981227178983, 13.668205069476333 ], [ 103.010650576060257, 13.671816730325556 ], [ 103.014520347859587, 13.68522759796017 ], [ 103.019634425502971, 13.689162541383556 ], [ 103.027877517942485, 13.7005703264603 ], [ 102.996244865446926, 13.698971806922739 ], [ 102.914199552562749, 13.718191662733448 ], [ 102.91466351398293, 13.650313978256438 ], [ 102.92713404932384, 13.636276731883134 ], [ 102.92878831937584, 13.636412527386076 ], [ 102.926697198022552, 13.629155343014588 ], [ 102.927806349041148, 13.616885596586396 ], [ 102.92256641453244, 13.60652732981216 ], [ 102.919186387882235, 13.610455020196827 ], [ 102.907960064166573, 13.607576406971607 ], [ 102.897786507584854, 13.611133663315117 ], [ 102.889597066028912, 13.612286568302656 ], [ 102.881915808840176, 13.609147675969362 ], [ 102.870604447270807, 13.598037676199647 ], [ 102.869362266573745, 13.543835038490259 ], [ 102.877995045573783, 13.535119075932355 ], [ 102.877151751749352, 13.516475823829451 ], [ 102.879174183141473, 13.512017484993441 ], [ 102.882839726877819, 13.509300167985758 ], [ 102.885016968121292, 13.511846606969996 ], [ 102.883782245825302, 13.514211733653081 ], [ 102.886315770250192, 13.514226350345233 ], [ 102.8882516505805, 13.516037620595016 ], [ 102.887549096366314, 13.517718194977261 ], [ 102.891977517112394, 13.518603846827776 ], [ 102.904110699162587, 13.533060839657223 ], [ 102.912883244861277, 13.533501308994772 ], [ 102.933686333341399, 13.544521871114922 ], [ 102.936450048826899, 13.547277285877817 ], [ 102.940577296978105, 13.547702183275449 ], [ 102.94114169932989, 13.549436307461985 ], [ 102.986153201339533, 13.552657771674077 ], [ 102.984277863505753, 13.564178768287288 ], [ 103.073900898378554, 13.568935243461993 ], [ 103.078345439114344, 13.569652986310656 ], [ 103.080476597805912, 13.573975359449257 ], [ 103.083050015496468, 13.574513302156852 ] ] ] } },
{ "type": "Feature", "properties": { "shapeName": "Thma Puok", "shapeID": "14789045B61404286718051" }, "geometry": { "type": "Polygon", "coordinates": [ [ [ 103.203556218203232, 13.938419278635548 ], [ 103.191877629077482, 13.960700814210286 ], [ 103.171147827246983, 13.993677625018734 ], [ 103.170391100847809, 13.996978660190466 ], [ 103.172193667113731, 14.001733760477203 ], [ 103.177096461877014, 14.00282923688756 ], [ 103.186553975843182, 14.010510125310272 ], [ 103.193537544031699, 14.024236758488129 ], [ 103.195614745025765, 14.039006761451933 ], [ 103.193970431157837, 14.042581434831636 ], [ 103.187168424443058, 14.049377906351886 ], [ 103.185901460588099, 14.052877378995122 ], [ 103.189912231700475, 14.057770997365573 ], [ 103.196505568506566, 14.06220259533246 ], [ 103.199590128611732, 14.06685644631068 ], [ 103.201443750032269, 14.078786842563312 ], [ 103.200158254062572, 14.083801239466172 ], [ 103.205523985522404, 14.091478324953268 ], [ 103.210617727382754, 14.109844135605794 ], [ 103.20876111422281, 14.110423449873583 ], [ 103.204088462397806, 14.10722986870633 ], [ 103.196948506064317, 14.108477976771448 ], [ 103.195956225818108, 14.109762967207647 ], [ 103.185380701758788, 14.105470708321658 ], [ 103.175926513472433, 14.106473659424474 ], [ 103.16425863111499, 14.112199688720937 ], [ 103.160520212907258, 14.111495577921891 ], [ 103.157482953327914, 14.107735235499428 ], [ 103.150964799772524, 14.111743211846036 ], [ 103.14443893704771, 14.110876881146122 ], [ 103.142125214489852, 14.108344586571542 ], [ 103.132608476708697, 14.112142596273253 ], [ 103.12475457487561, 14.109191462690575 ], [ 103.118276870475711, 14.114704027440096 ], [ 103.110345733086163, 14.115761932858577 ], [ 103.109356358336342, 14.119656252460492 ], [ 103.100289043780506, 14.125305414967785 ], [ 103.098473711159784, 14.129527898731391 ], [ 103.091543931111033, 14.13246268375228 ], [ 103.091013327791288, 14.134152103041322 ], [ 103.086257210406757, 14.137118459588979 ], [ 103.086153494903542, 14.1396379143597 ], [ 103.082282162089598, 14.140554674079278 ], [ 103.079307343320892, 14.1566130980877 ], [ 103.076750586301827, 14.158978487943171 ], [ 103.075775334282199, 14.163876824025756 ], [ 103.031869680572342, 14.250228373180565 ], [ 103.033169834473185, 14.239051173079034 ], [ 103.03197064379404, 14.237510633225593 ], [ 103.027380841019607, 14.234805691092761 ], [ 103.022078088797741, 14.228505934225854 ], [ 103.017091216199304, 14.231231054488713 ], [ 103.013275492853012, 14.230824312217106 ], [ 103.009787687654438, 14.224181327520967 ], [ 103.00428122293394, 14.220464134840809 ], [ 102.999273872799847, 14.214164189026434 ], [ 102.989553760174815, 14.21313943759 ], [ 102.986104104780523, 14.214887288382185 ], [ 102.971576909101785, 14.210482172099052 ], [ 102.962451142833842, 14.212216477915796 ], [ 102.951738799675198, 14.206146049784797 ], [ 102.956778528706224, 14.198853561729631 ], [ 102.956167930975028, 14.196737138098499 ], [ 102.95126235094726, 14.196006155097166 ], [ 102.944711080006101, 14.198502866591953 ], [ 102.938482231931445, 14.194848192257123 ], [ 102.940810630889416, 14.186195279585249 ], [ 102.929885276415334, 14.176976379125449 ], [ 102.937355982024769, 14.1651067268944 ], [ 102.93718102249565, 14.161213803257962 ], [ 102.940982087405146, 14.152294469752482 ], [ 102.940406828029566, 14.14839923697491 ], [ 102.936303326848872, 14.142128694829351 ], [ 102.924961362717085, 14.132138141050953 ], [ 102.923568984248575, 14.127181952418809 ], [ 102.924641049958353, 14.110439440844585 ], [ 102.923165247906937, 14.10598642238512 ], [ 102.920065533594183, 14.104763170385349 ], [ 102.920339254636744, 14.103527150863455 ], [ 102.910959255868747, 14.095233481666876 ], [ 102.907849787198373, 14.095592817548228 ], [ 102.906734293205758, 14.091578800186845 ], [ 102.904235508584733, 14.090334890043277 ], [ 102.90461307435082, 14.088431457433353 ], [ 102.900726853652188, 14.083412864206412 ], [ 102.901918414427726, 14.072204353264114 ], [ 102.900846818282218, 14.070498421649329 ], [ 102.902479845389252, 14.06732948923932 ], [ 102.898834875091765, 14.061462443427752 ], [ 102.897791981605863, 14.051836221644461 ], [ 102.900348304502813, 14.047799900992294 ], [ 102.899633183412533, 14.043776933793463 ], [ 102.903508630163913, 14.041333417087023 ], [ 102.903919749346258, 14.037856765607557 ], [ 102.901545078781197, 14.035718226322379 ], [ 102.907068095933184, 14.029588421392054 ], [ 102.908299148101818, 14.021192748525177 ], [ 102.911060846612529, 14.019901758496928 ], [ 102.911348086760484, 14.017308461134041 ], [ 102.90932150071049, 14.015963720300832 ], [ 102.907665780750662, 14.017261992816305 ], [ 102.901358971283969, 14.015569545319821 ], [ 102.893953253181948, 14.007372366091387 ], [ 102.885520615134197, 14.010544177876158 ], [ 102.882352906209178, 14.009181369046322 ], [ 102.879929898457831, 14.003758622951825 ], [ 102.866632598497262, 14.004258694413661 ], [ 102.848956310384338, 13.986036590760451 ], [ 102.815626886703313, 13.96543461737572 ], [ 102.810957800433556, 13.953302230658533 ], [ 102.80302740810977, 13.943025553513829 ], [ 102.798324650628118, 13.942263556173392 ], [ 102.793115379678341, 13.937717542732955 ], [ 102.782910430098852, 13.932816529490703 ], [ 102.925922932509991, 13.932566268098931 ], [ 102.938125023383193, 13.931244316965827 ], [ 102.944497378787858, 13.928623264330584 ], [ 102.95665073855784, 13.92874470843784 ], [ 102.960526404066897, 13.923509773472013 ], [ 102.964971549040655, 13.920480377465978 ], [ 102.964339165245647, 13.917695173009616 ], [ 102.970519281749972, 13.904774759756799 ], [ 102.970100313919687, 13.897750645583036 ], [ 102.972930724262611, 13.895994998829602 ], [ 102.971438151815647, 13.894392166792004 ], [ 102.973697221547908, 13.890526131143725 ], [ 102.976435207457214, 13.890317168928318 ], [ 102.981533081364432, 13.880896801589074 ], [ 102.986478810378074, 13.882335695410578 ], [ 102.996323272279142, 13.879628650023108 ], [ 102.998356871820448, 13.881178242501543 ], [ 102.998789351175802, 13.883836455069996 ], [ 103.004276382379956, 13.884872034831504 ], [ 103.012004483386406, 13.882780787105 ], [ 103.01401542387346, 13.875974018606474 ], [ 103.019459235496669, 13.871194537080713 ], [ 103.033254627941872, 13.863250209836771 ], [ 103.048169399967861, 13.85888143195046 ], [ 103.049786994567341, 13.857246126854731 ], [ 103.051103114644874, 13.851100981230452 ], [ 103.051771982532003, 13.823913734512804 ], [ 103.053229977533988, 13.819189673913531 ], [ 103.059654138811027, 13.816827541398338 ], [ 103.065335849340826, 13.824605128524006 ], [ 103.076980048265909, 13.821273698390216 ], [ 103.079377993214138, 13.819153961587279 ], [ 103.079444274199687, 13.821645466975832 ], [ 103.080907545829547, 13.822631848563795 ], [ 103.084862293141711, 13.822501203268891 ], [ 103.088517920842889, 13.841309909819321 ], [ 103.094009052209984, 13.837794107071201 ], [ 103.099191894188053, 13.837591468573841 ], [ 103.102076036225739, 13.848721135800403 ], [ 103.106729380827446, 13.844368214303163 ], [ 103.114132687598925, 13.841815664678421 ], [ 103.12631928212501, 13.85151520429587 ], [ 103.13397765466982, 13.845119540762834 ], [ 103.137518193197209, 13.843885701261241 ], [ 103.147030808113527, 13.843947663270885 ], [ 103.149687566704927, 13.84459022775504 ], [ 103.152662387781362, 13.8492468684294 ], [ 103.156986177604253, 13.852387363008861 ], [ 103.166674848894417, 13.856373539335491 ], [ 103.185895428365541, 13.860777041454403 ], [ 103.207948057344367, 13.863726654537349 ], [ 103.221580481732218, 13.863321107104239 ], [ 103.213692454217409, 13.885965277837959 ], [ 103.204336912366287, 13.929336106785993 ], [ 103.203556218203232, 13.938419278635548 ] ] ] } },
{ "type": "Feature", "properties": { "shapeName": "Svay Chek", "shapeID": "14789045B19114929433175" }, "geometry": { "type": "Polygon", "coordinates": [ [ [ 103.221580481732218, 13.863321107104239 ], [ 103.207948057344367, 13.863726654537349 ], [ 103.185895428365541, 13.860777041454403 ], [ 103.166674848894417, 13.856373539335491 ], [ 103.156986177604253, 13.852387363008861 ], [ 103.152662387781362, 13.8492468684294 ], [ 103.149687566704927, 13.84459022775504 ], [ 103.147030808113527, 13.843947663270885 ], [ 103.137518193197209, 13.843885701261241 ], [ 103.13397765466982, 13.845119540762834 ], [ 103.12631928212501, 13.85151520429587 ], [ 103.114132687598925, 13.841815664678421 ], [ 103.106729380827446, 13.844368214303163 ], [ 103.102076036225739, 13.848721135800403 ], [ 103.099191894188053, 13.837591468573841 ], [ 103.094009052209984, 13.837794107071201 ], [ 103.088517920842889, 13.841309909819321 ], [ 103.084862293141711, 13.822501203268891 ], [ 103.080907545829547, 13.822631848563795 ], [ 103.079444274199687, 13.821645466975832 ], [ 103.079377993214138, 13.819153961587279 ], [ 103.076980048265909, 13.821273698390216 ], [ 103.065335849340826, 13.824605128524006 ], [ 103.059654138811027, 13.816827541398338 ], [ 103.053229977533988, 13.819189673913531 ], [ 103.051771982532003, 13.823913734512804 ], [ 103.051103114644874, 13.851100981230452 ], [ 103.049786994567341, 13.857246126854731 ], [ 103.048169399967861, 13.85888143195046 ], [ 103.033254627941872, 13.863250209836771 ], [ 103.019459235496669, 13.871194537080713 ], [ 103.01401542387346, 13.875974018606474 ], [ 103.012004483386406, 13.882780787105 ], [ 103.004276382379956, 13.884872034831504 ], [ 102.998789351175802, 13.883836455069996 ], [ 102.998356871820448, 13.881178242501543 ], [ 102.996323272279142, 13.879628650023108 ], [ 102.986478810378074, 13.882335695410578 ], [ 102.981533081364432, 13.880896801589074 ], [ 102.976435207457214, 13.890317168928318 ], [ 102.973697221547908, 13.890526131143725 ], [ 102.971438151815647, 13.894392166792004 ], [ 102.972930724262611, 13.895994998829602 ], [ 102.970100313919687, 13.897750645583036 ], [ 102.970519281749972, 13.904774759756799 ], [ 102.964339165245647, 13.917695173009616 ], [ 102.964971549040655, 13.920480377465978 ], [ 102.960526404066897, 13.923509773472013 ], [ 102.95665073855784, 13.92874470843784 ], [ 102.944497378787858, 13.928623264330584 ], [ 102.938125023383193, 13.931244316965827 ], [ 102.925922932509991, 13.932566268098931 ], [ 102.782910430098852, 13.932816529490703 ], [ 102.76625194550958, 13.856377147418232 ], [ 102.75599889365715, 13.846550542922976 ], [ 102.741590365881123, 13.823486237412366 ], [ 102.748282881758001, 13.823203269813995 ], [ 102.748713384696956, 13.76862237483035 ], [ 102.787197231817174, 13.759066526429683 ], [ 102.793438650419944, 13.759570928844592 ], [ 102.80955713222005, 13.755664265203476 ], [ 102.81100440661092, 13.756631581548987 ], [ 102.817251424527242, 13.753595451169634 ], [ 102.84389358585922, 13.751836303933572 ], [ 102.868945192992655, 13.740712110114941 ], [ 102.913371531880145, 13.740647987700386 ], [ 102.914199552562749, 13.718191662733448 ], [ 102.996244865446926, 13.698971806922739 ], [ 103.027877517942485, 13.7005703264603 ], [ 103.045010718395304, 13.701433854943609 ], [ 103.044964440175931, 13.722490871542982 ], [ 103.059594035447546, 13.735109704293025 ], [ 103.073266613788945, 13.73949049578656 ], [ 103.084218901624084, 13.740835411758976 ], [ 103.137797639577514, 13.733957728434319 ], [ 103.140209990574746, 13.734477523486811 ], [ 103.157860326188484, 13.748630112642942 ], [ 103.17961730266947, 13.776460701880294 ], [ 103.180951516005067, 13.78601365888038 ], [ 103.18150820379033, 13.822876177694505 ], [ 103.183100948277499, 13.825420895801498 ], [ 103.205021773586978, 13.838602877151791 ], [ 103.223690870629355, 13.842157603148239 ], [ 103.23251628991973, 13.849052095875434 ], [ 103.229731617856785, 13.858913057560144 ], [ 103.225957517472182, 13.862174519211557 ], [ 103.221580481732218, 13.863321107104239 ] ] ] } },
{ "type": "Feature", "properties": { "shapeName": "Malai", "shapeID": "14789045B32583136425943" }, "geometry": { "type": "Polygon", "coordinates": [ [ [ 102.829152808540158, 13.484364191000866 ], [ 102.830582673478574, 13.486212104562151 ], [ 102.816497927269154, 13.499181548720042 ], [ 102.813205723578477, 13.497804167290605 ], [ 102.812208118338319, 13.499384315518268 ], [ 102.810233518766196, 13.499349822124838 ], [ 102.804761126778374, 13.491338692273937 ], [ 102.800404231500764, 13.490558556652577 ], [ 102.795915204143, 13.491692506862824 ], [ 102.794414511515114, 13.492944662925117 ], [ 102.794712486079831, 13.494977660168074 ], [ 102.789938323295729, 13.495470540136823 ], [ 102.787954483089635, 13.497402867537714 ], [ 102.785110845094891, 13.4969636485111 ], [ 102.783872997604817, 13.495310707827624 ], [ 102.780589660692669, 13.495836610708796 ], [ 102.761466598790406, 13.507459259964572 ], [ 102.76148275292455, 13.516216388997115 ], [ 102.75915931148954, 13.517947001938763 ], [ 102.756839905968064, 13.51774835992151 ], [ 102.749500202203365, 13.525811095406759 ], [ 102.739656063884283, 13.528508826384245 ], [ 102.740195812296022, 13.531262623263542 ], [ 102.73798789906354, 13.538297184350819 ], [ 102.73323357777312, 13.544512609404705 ], [ 102.73354553045661, 13.547011032687738 ], [ 102.729336498698103, 13.550978898956021 ], [ 102.729318509352495, 13.558006240249297 ], [ 102.727222270236354, 13.559682538748113 ], [ 102.728043341296797, 13.561923020631163 ], [ 102.726501960178737, 13.561991439748747 ], [ 102.725115007117523, 13.564300294860175 ], [ 102.723440927596414, 13.563862846045383 ], [ 102.722767996786104, 13.56558533017285 ], [ 102.721719450172131, 13.563368665082068 ], [ 102.720116995112434, 13.563466617626485 ], [ 102.720346633820284, 13.567540436829635 ], [ 102.718363562479269, 13.568845462720491 ], [ 102.716266371177966, 13.567005892147693 ], [ 102.717419733599797, 13.571061918894658 ], [ 102.712308506162969, 13.574850823579332 ], [ 102.711415276722917, 13.573857070008859 ], [ 102.707138555460844, 13.575797346913884 ], [ 102.705963670728963, 13.573309758768021 ], [ 102.703770701991232, 13.573974448354537 ], [ 102.700905447885376, 13.566771032910552 ], [ 102.694034647069145, 13.566228480083637 ], [ 102.691945707750676, 13.563388628549719 ], [ 102.687578303609357, 13.561525517425203 ], [ 102.682020662339667, 13.562923291435263 ], [ 102.666650287585128, 13.561596211849045 ], [ 102.663499074893906, 13.56857834825848 ], [ 102.662015718624218, 13.569220662518921 ], [ 102.655313801830047, 13.566081178590398 ], [ 102.640044541382068, 13.564474650242603 ], [ 102.633861478556568, 13.560840349382479 ], [ 102.630943770576451, 13.560849950964009 ], [ 102.630385755316269, 13.603434836672696 ], [ 102.626307843498424, 13.605756790820246 ], [ 102.626279522890599, 13.60880029796613 ], [ 102.624201366467915, 13.608713829595855 ], [ 102.617389387910634, 13.607504689661381 ], [ 102.613183855430009, 13.60854354812265 ], [ 102.613287883685743, 13.606826064687498 ], [ 102.610820794354552, 13.60537256654105 ], [ 102.60650120284447, 13.607136690786209 ], [ 102.59816495023648, 13.606880700362945 ], [ 102.596609288844164, 13.608484403730202 ], [ 102.591163465379339, 13.606574616142996 ], [ 102.588883400771309, 13.607950617053969 ], [ 102.579897032139627, 13.606145596640795 ], [ 102.57372510586913, 13.602669136181076 ], [ 102.5734001372347, 13.597137661766725 ], [ 102.570900866570341, 13.59617591281774 ], [ 102.569144713849326, 13.591353284275456 ], [ 102.570102089120269, 13.585849005702583 ], [ 102.56418552005978, 13.582779043673922 ], [ 102.56276109023608, 13.579073163278892 ], [ 102.556347397118188, 13.578400941748017 ], [ 102.553101307516684, 13.575115371361051 ], [ 102.549366435094271, 13.577338845036763 ], [ 102.546581876359355, 13.574728973218182 ], [ 102.544782442978601, 13.575476845872187 ], [ 102.543823482166289, 13.572601513500095 ], [ 102.539945605049269, 13.569697414401428 ], [ 102.540450605312671, 13.568654760110638 ], [ 102.531209902313719, 13.565581786942913 ], [ 102.527666964175339, 13.567153408159134 ], [ 102.526849927301086, 13.564516173935358 ], [ 102.525681676698241, 13.565965225674335 ], [ 102.524091644709046, 13.564891757615207 ], [ 102.521283659173662, 13.567080006176328 ], [ 102.518946516416733, 13.567056780089398 ], [ 102.519219605479961, 13.568026527238654 ], [ 102.510706049041559, 13.569321766190411 ], [ 102.509783468423407, 13.567443982266553 ], [ 102.500623819431368, 13.571043113446351 ], [ 102.49671029687363, 13.569412659798722 ], [ 102.490082612927068, 13.572062082177188 ], [ 102.483845721950928, 13.570631652035454 ], [ 102.48013160312297, 13.572518508880769 ], [ 102.479162002966376, 13.570678102606328 ], [ 102.477115212891363, 13.571434375527685 ], [ 102.475714189271912, 13.567587337204833 ], [ 102.472394856113866, 13.566736119693697 ], [ 102.471823989412314, 13.564857951542988 ], [ 102.46965956809504, 13.565580226341412 ], [ 102.469652303973078, 13.567178113735926 ], [ 102.466628056808275, 13.565323609911285 ], [ 102.46306090129562, 13.565969102686465 ], [ 102.459151112889785, 13.56195118939122 ], [ 102.453904128856479, 13.563153495911918 ], [ 102.453138318103186, 13.561723907906908 ], [ 102.444852132644598, 13.560726766390754 ], [ 102.44419146220612, 13.563893286786698 ], [ 102.43884420741044, 13.559799046197515 ], [ 102.431142663698367, 13.562069931389431 ], [ 102.42848820278374, 13.566611624635387 ], [ 102.421045337994784, 13.571304822600869 ], [ 102.418273422338174, 13.569987661683724 ], [ 102.415207341551294, 13.570948533422673 ], [ 102.414624430135191, 13.569000167212696 ], [ 102.411748172364639, 13.56898276907536 ], [ 102.41019071755909, 13.566998315352368 ], [ 102.405208339177904, 13.568862891705075 ], [ 102.397110029548486, 13.566655559098548 ], [ 102.390640651848258, 13.56813350510506 ], [ 102.387209796550565, 13.572186980588844 ], [ 102.38262972762351, 13.571989903715657 ], [ 102.381106154639525, 13.574647930992709 ], [ 102.378654169173288, 13.574809621589392 ], [ 102.378120346256466, 13.576629972228954 ], [ 102.375548089948637, 13.577689228637862 ], [ 102.373057802112797, 13.575127896223465 ], [ 102.370875300428537, 13.57522911219821 ], [ 102.371276162382998, 13.576615506680515 ], [ 102.368585196880744, 13.57753792875574 ], [ 102.364779402970953, 13.577298993358637 ], [ 102.36323996588078, 13.573511136575487 ], [ 102.360826877339107, 13.572832925991541 ], [ 102.359905183861528, 13.570991587734579 ], [ 102.358323394793359, 13.571305756167845 ], [ 102.359726658046569, 13.569534141625596 ], [ 102.358472446030845, 13.568523770796846 ], [ 102.359154155525118, 13.564978481500138 ], [ 102.357014639402124, 13.565872752470806 ], [ 102.355475807936386, 13.56333604902505 ], [ 102.342513204771492, 13.560542483980567 ], [ 102.342072239456172, 13.558627181593735 ], [ 102.340086622838882, 13.5596573192277 ], [ 102.338001958612963, 13.556483510932347 ], [ 102.338944570797679, 13.554418092584157 ], [ 102.33746914743233, 13.552351743364287 ], [ 102.338633455240313, 13.551364813048671 ], [ 102.33661082571156, 13.549752217638302 ], [ 102.33797146346474, 13.546005362366786 ], [ 102.335249186711195, 13.544870863413484 ], [ 102.333847797344632, 13.540725322758705 ], [ 102.335196896147181, 13.539436615831667 ], [ 102.333828199471824, 13.537473032564744 ], [ 102.335587518387882, 13.537341604383041 ], [ 102.338652523403667, 13.532647421047814 ], [ 102.341411729737118, 13.532759196533499 ], [ 102.346415983363485, 13.529574910962449 ], [ 102.347992988389123, 13.523963664999233 ], [ 102.350467941081163, 13.523813722181369 ], [ 102.349701698207554, 13.522269885192159 ], [ 102.350987160679409, 13.519282052332356 ], [ 102.357112836453226, 13.514386156334576 ], [ 102.358929795411626, 13.511770861044473 ], [ 102.357521024122164, 13.510440178599479 ], [ 102.359708711184155, 13.507397708745307 ], [ 102.362964958692714, 13.506756729457731 ], [ 102.363293242317738, 13.504317678657431 ], [ 102.361841664584276, 13.50469988652859 ], [ 102.360564175768815, 13.502460742638284 ], [ 102.362232082442162, 13.498418751942085 ], [ 102.3609261087325, 13.492853762787178 ], [ 102.362953286289368, 13.491590032251594 ], [ 102.360714617425018, 13.488367403263833 ], [ 102.360832668094432, 13.483778362927172 ], [ 102.359283543947384, 13.483506861479402 ], [ 102.357038611713804, 13.479263339589357 ], [ 102.357961007361766, 13.476114168859732 ], [ 102.686813461082522, 13.479363228392948 ], [ 102.696081902843332, 13.47934228259809 ], [ 102.702579169770118, 13.472483742651708 ], [ 102.713719330031253, 13.464404491004075 ], [ 102.728042422065045, 13.448540639518047 ], [ 102.73606330019355, 13.443143862927633 ], [ 102.749772980119587, 13.448071772678603 ], [ 102.752024877003862, 13.450190548920904 ], [ 102.754705216992434, 13.449943400421621 ], [ 102.765684668730415, 13.453899618964424 ], [ 102.772766223714129, 13.454253848526141 ], [ 102.81063244060887, 13.472565500008983 ], [ 102.822733375637938, 13.47606615286216 ], [ 102.829152808540158, 13.484364191000866 ] ] ] } },
{ "type": "Feature", "properties": { "shapeName": "Paoy Paet", "shapeID": "14789045B48513904069909" }, "geometry": { "type": "Polygon", "coordinates": [ [ [ 102.656554039350112, 13.737989550684775 ], [ 102.598029175341722, 13.706757001553692 ], [ 102.592065563537275, 13.707355155818826 ], [ 102.587973728305101, 13.703820958386931 ], [ 102.580587724786881, 13.700478120176564 ], [ 102.576775121641774, 13.69629824999665 ], [ 102.578167596216403, 13.694843699123435 ], [ 102.577004104126686, 13.693001591220225 ], [ 102.569049321176564, 13.690994601607299 ], [ 102.566755936907029, 13.68695490382536 ], [ 102.562841837193403, 13.683982392469769 ], [ 102.558207548215449, 13.673945099666481 ], [ 102.550635222976211, 13.665121337123377 ], [ 102.551255399723189, 13.663120224418671 ], [ 102.547961934455216, 13.658822221816576 ], [ 102.552138745657871, 13.656434461688287 ], [ 102.552613653342419, 13.654443861162504 ], [ 102.554994309344494, 13.653604216840634 ], [ 102.554388492836097, 13.652503939615471 ], [ 102.557666832451773, 13.652335127296967 ], [ 102.556603896170287, 13.650380637333033 ], [ 102.557990350163664, 13.650206589182586 ], [ 102.557580364872834, 13.648859260906075 ], [ 102.561001112506204, 13.649391553369725 ], [ 102.562013847810746, 13.646894377566589 ], [ 102.563415999500151, 13.64777542584036 ], [ 102.564187348000473, 13.645720181338815 ], [ 102.565789907690245, 13.646146993772575 ], [ 102.566075013793238, 13.644526885486057 ], [ 102.570314408003085, 13.643055055093452 ], [ 102.571168500961036, 13.635817350416353 ], [ 102.572427483775655, 13.635833045404633 ], [ 102.572506386105218, 13.633112023054075 ], [ 102.573933826583968, 13.633046718124474 ], [ 102.575353907896186, 13.629672612550547 ], [ 102.578889647442011, 13.630196464386074 ], [ 102.578428534960679, 13.628861875744077 ], [ 102.580425153975511, 13.628078248794331 ], [ 102.58409966192383, 13.630096598580197 ], [ 102.586102909641696, 13.628660485981285 ], [ 102.586590999713977, 13.629869846146043 ], [ 102.590247793436916, 13.624785690451077 ], [ 102.592535210178966, 13.626953591793528 ], [ 102.594580791860338, 13.622594078598681 ], [ 102.599885845073544, 13.623235120767715 ], [ 102.601506137803966, 13.622374167112413 ], [ 102.601910458858256, 13.619665856678481 ], [ 102.604617003177566, 13.619717042819849 ], [ 102.606470579714966, 13.616560172407516 ], [ 102.610447756813414, 13.615280842842628 ], [ 102.610864008447749, 13.617267476740606 ], [ 102.613213411889063, 13.616142976925961 ], [ 102.614041686487212, 13.613834635511218 ], [ 102.62132402281388, 13.613091055660748 ], [ 102.622771070305973, 13.610730911368275 ], [ 102.624193366382485, 13.610907626302801 ], [ 102.624201366467915, 13.608713829595855 ], [ 102.626279522890599, 13.60880029796613 ], [ 102.626307843498424, 13.605756790820246 ], [ 102.630385755316269, 13.603434836672696 ], [ 102.630943770576451, 13.560849950964009 ], [ 102.633861478556568, 13.560840349382479 ], [ 102.640044541382068, 13.564474650242603 ], [ 102.655313801830047, 13.566081178590398 ], [ 102.662015718624218, 13.569220662518921 ], [ 102.663499074893906, 13.56857834825848 ], [ 102.666650287585128, 13.561596211849045 ], [ 102.682020662339667, 13.562923291435263 ], [ 102.687578303609357, 13.561525517425203 ], [ 102.691945707750676, 13.563388628549719 ], [ 102.694034647069145, 13.566228480083637 ], [ 102.700905447885376, 13.566771032910552 ], [ 102.703770701991232, 13.573974448354537 ], [ 102.705963670728963, 13.573309758768021 ], [ 102.707138555460844, 13.575797346913884 ], [ 102.711415276722917, 13.573857070008859 ], [ 102.712308506162969, 13.574850823579332 ], [ 102.717419733599797, 13.571061918894658 ], [ 102.716266371177966, 13.567005892147693 ], [ 102.718363562479269, 13.568845462720491 ], [ 102.723258883212395, 13.578473892744658 ], [ 102.720577899424924, 13.586914901337138 ], [ 102.721128581190442, 13.588857006691788 ], [ 102.72970817917809, 13.597980293774775 ], [ 102.735825427283189, 13.599681659798625 ], [ 102.754522032658301, 13.599585523503126 ], [ 102.757685278001816, 13.618745673801515 ], [ 102.752374364363419, 13.625327930838749 ], [ 102.74637208562487, 13.629413208213494 ], [ 102.745165089121642, 13.65618833346673 ], [ 102.741933554156276, 13.661690077893571 ], [ 102.730390344287144, 13.668130072128822 ], [ 102.726228070079443, 13.673791301195564 ], [ 102.724985399447306, 13.679212704645821 ], [ 102.725695269788829, 13.685955455808756 ], [ 102.722868196233406, 13.696414431260024 ], [ 102.712638332212308, 13.69636749448337 ], [ 102.712096625178461, 13.723395239186504 ], [ 102.65651417068544, 13.722902250527953 ], [ 102.656554039350112, 13.737989550684775 ] ] ] } }
]
}
